{"type":"FeatureCollection","features":[{"type":"Feature","id":"relation/531236","properties":{"timestamp":"2020-03-01T23:24:16Z","version":"6","changeset":"81656211","user":"Garmin-User","uid":"177389","building":"yes","type":"multipolygon","id":"relation/531236"},"geometry":{"type":"Polygon","coordinates":[[[6.6318626,46.5213432],[6.632147,46.5213186],[6.6321568,46.5213262],[6.6321675,46.5213345],[6.6321103,46.5214909],[6.6320653,46.5216138],[6.6319141,46.5215829],[6.6318673,46.5215823],[6.6318655,46.5214924],[6.6318626,46.5213432]],[[6.6318923,46.5214671],[6.6319527,46.5214826],[6.6319731,46.521432],[6.6319554,46.5214198],[6.6319086,46.5214277],[6.6318923,46.5214671]]]}},{"type":"Feature","id":"relation/5807416","properties":{"timestamp":"2015-12-29T10:59:15Z","version":"1","changeset":"36238129","user":"kuede","uid":"8296","building":"yes","type":"multipolygon","id":"relation/5807416"},"geometry":{"type":"Polygon","coordinates":[[[6.6318175,46.5225388],[6.6319701,46.5224422],[6.632049,46.5224374],[6.6320889,46.5224754],[6.6321275,46.5225122],[6.6320812,46.5225466],[6.6320426,46.5225741],[6.632018,46.5225933],[6.6319008,46.5226845],[6.6318893,46.5226926],[6.6317703,46.5226133],[6.631844,46.5225616],[6.6318175,46.5225388]],[[6.6320077,46.5225075],[6.6319859,46.5224913],[6.6319422,46.522519],[6.631964,46.5225353],[6.6320077,46.5225075]]]}},{"type":"Feature","id":"way/25718547","properties":{"timestamp":"2018-10-25T10:13:20Z","version":"10","changeset":"63862009","user":"-WI-","uid":"102162","amenity":"place_of_worship","building":"cathedral","denomination":"protestant","name":"Cathédrale Notre-Dame de Lausanne","name:ko":"로잔 노트르담 대성당","religion":"christian","source":"local knowledge","wikidata":"Q669544","wikipedia":"fr:Cathédrale de Lausanne","id":"way/25718547"},"geometry":{"type":"Polygon","coordinates":[[[6.6357982,46.522431],[6.6358845,46.5224296],[6.6359444,46.5224613],[6.6359917,46.5224965],[6.6360083,46.5225571],[6.6359709,46.5226124],[6.6359142,46.5226397],[6.6358676,46.5226487],[6.6358791,46.5227085],[6.6356041,46.5227335],[6.6355937,46.5226795],[6.6354062,46.5226966],[6.6354135,46.522735],[6.6351905,46.5227553],[6.6351877,46.5227408],[6.6351203,46.5227469],[6.6351039,46.5226618],[6.6349778,46.5226733],[6.6349907,46.5227405],[6.6350317,46.5227368],[6.6350383,46.5227711],[6.6350057,46.522774],[6.6350096,46.5227943],[6.6349654,46.5227983],[6.6349623,46.5227822],[6.6348684,46.5227908],[6.6348756,46.5228285],[6.6348416,46.5228316],[6.6348337,46.5227904],[6.6347653,46.5227967],[6.6347615,46.5227771],[6.6347963,46.5227739],[6.6347819,46.522699],[6.6347331,46.5227035],[6.634727,46.5226713],[6.6347535,46.5226689],[6.6347447,46.5226233],[6.634712,46.5224531],[6.6349281,46.5224334],[6.6349495,46.5225452],[6.6350794,46.5225334],[6.6350726,46.5224981],[6.6351233,46.5224935],[6.6351116,46.5224329],[6.6354043,46.5224063],[6.6354161,46.5224676],[6.6354777,46.522462],[6.6354842,46.5224954],[6.6355426,46.5224901],[6.6355211,46.5223782],[6.6356792,46.5223639],[6.6357834,46.5223544],[6.6357982,46.522431]]]}},{"type":"Feature","id":"way/44176000","properties":{"timestamp":"2010-12-27T19:42:45Z","version":"4","changeset":"6781382","user":"teol","uid":"388519","addr:city":"Lausanne","addr:country":"CH","addr:housenumber":"5","building":"yes","source":"orthophoto lausanne 2009","id":"way/44176000"},"geometry":{"type":"Polygon","coordinates":[[[6.6350347,46.5229245],[6.6350748,46.5230456],[6.6348292,46.5230841],[6.6347892,46.522963],[6.6350347,46.5229245]]]}},{"type":"Feature","id":"way/44176001","properties":{"timestamp":"2015-05-01T20:49:01Z","version":"7","changeset":"30704020","user":"mathieuS","uid":"40504","addr:housenumber":"1","addr:postcode":"1014","addr:street":"Place de la Cathédrale","building":"yes","copyright":"OpenAddresses","name":"Maison Curtat","oa:imported_by":"sbrunner","oa:lat":"46.52282715","oa:lon":"6.63459396","oa:version":"oa2osm - 0.2 - sax","source":"orthophoto lausanne 2009","id":"way/44176001"},"geometry":{"type":"Polygon","coordinates":[[[6.6346499,46.5229764],[6.6344765,46.5229552],[6.6345231,46.5227745],[6.6345766,46.522781],[6.6346966,46.5227957],[6.6346499,46.5229764]]]}},{"type":"Feature","id":"way/44176005","properties":{"timestamp":"2015-10-15T19:03:13Z","version":"3","changeset":"34661839","user":"mathieuS","uid":"40504","addr:housenumber":"1","addr:postcode":"1005","addr:street":"Ruelle du Lapin-Vert","building":"yes","source":"Lausanne - Orthophoto technique 2012","id":"way/44176005"},"geometry":{"type":"Polygon","coordinates":[[[6.6357321,46.5236058],[6.6356918,46.5235367],[6.6357719,46.5235169],[6.6358548,46.5236527],[6.6358114,46.523666],[6.6357732,46.5236763],[6.6357321,46.5236058]]]}},{"type":"Feature","id":"way/44176009","properties":{"timestamp":"2015-05-23T11:55:39Z","version":"5","changeset":"31395800","user":"mathieuS","uid":"40504","addr:city":"Lausanne","addr:country":"CH","addr:housenumber":"8","addr:postcode":"1005","addr:street":"Place de la Cathédrale","building":"yes","source":"Lausanne - Orthophoto technique 2012","id":"way/44176009"},"geometry":{"type":"Polygon","coordinates":[[[6.6358661,46.5222751],[6.6357445,46.5222712],[6.6357136,46.5221659],[6.6358301,46.522147],[6.6358661,46.5222751]]]}},{"type":"Feature","id":"way/44176010","properties":{"timestamp":"2018-10-25T10:13:32Z","version":"9","changeset":"63862009","user":"-WI-","uid":"102162","addr:city":"Lausanne","addr:country":"CH","addr:housenumber":"6","addr:postcode":"1005","addr:street":"Place de la Cathédrale","building":"yes","copyright":"OpenAddresses","email":"info@mudac.ch","fax":"+41 21 315 25 39","name":"mudac","oa:imported_by":"sbrunner","oa:lat":"46.52210999","oa:lon":"6.63529682","oa:version":"oa2osm - 0.2 - sax","phone":"+41 21 315 25 30","source":"orthophoto lausanne 2009","tourism":"museum","website":"http://www.mudac.ch","wikidata":"Q3329765","wikipedia":"fr:Musée de design et d’arts appliqués contemporains","id":"way/44176010"},"geometry":{"type":"Polygon","coordinates":[[[6.6351761,46.5219402],[6.6353356,46.5219101],[6.6354856,46.5219307],[6.635483,46.5219684],[6.6354906,46.5219684],[6.6354798,46.5221584],[6.6353784,46.5221541],[6.6353778,46.5221638],[6.6352815,46.5221667],[6.6352816,46.5221604],[6.6351886,46.5221665],[6.6351761,46.5219402]]]}},{"type":"Feature","id":"way/44176014","properties":{"timestamp":"2015-05-01T20:40:02Z","version":"5","changeset":"30703818","user":"mathieuS","uid":"40504","building":"roof","source":"Lausanne - Orthophoto technique 2012","id":"way/44176014"},"geometry":{"type":"Polygon","coordinates":[[[6.6341688,46.5228495],[6.6341499,46.5228438],[6.6341306,46.5228379],[6.6340896,46.5229022],[6.6340691,46.522896],[6.6340515,46.5228907],[6.6340925,46.5228264],[6.6341092,46.5228002],[6.6341265,46.5227732],[6.6341384,46.5227545],[6.6341559,46.5227598],[6.6341754,46.5227291],[6.6341865,46.5227325],[6.6341991,46.5227363],[6.6341796,46.522767],[6.6342146,46.5227775],[6.6341688,46.5228495]]]}},{"type":"Feature","id":"way/44176015","properties":{"timestamp":"2015-05-01T20:33:25Z","version":"9","changeset":"30703664","user":"mathieuS","uid":"40504","building":"roof","source":"Lausanne - Orthophoto technique 2012","id":"way/44176015"},"geometry":{"type":"Polygon","coordinates":[[[6.634393,46.5225959],[6.6343773,46.5225885],[6.6343602,46.5225806],[6.6343305,46.5225667],[6.6343485,46.5225486],[6.6343615,46.5225354],[6.6344909,46.5225959],[6.6344814,46.5226109],[6.6344788,46.5226149],[6.6343964,46.5225901],[6.634393,46.5225959]]]}},{"type":"Feature","id":"way/44176016","properties":{"timestamp":"2015-05-01T19:18:17Z","version":"6","changeset":"30701353","user":"mathieuS","uid":"40504","addr:housenumber":"6","addr:postcode":"1003","addr:street":"Rue Pierre-Viret","building":"yes","source":"Lausanne - Orthophoto technique 2012","id":"way/44176016"},"geometry":{"type":"Polygon","coordinates":[[[6.6344048,46.52253],[6.6343899,46.5225229],[6.6343148,46.5224797],[6.6343302,46.5224339],[6.6342777,46.5224427],[6.6342239,46.5223472],[6.6344683,46.5223165],[6.6344048,46.52253]]]}},{"type":"Feature","id":"way/44176017","properties":{"timestamp":"2020-02-10T03:39:28Z","version":"15","changeset":"80771729","user":"stedewa","uid":"9733","building":"yes","castle_type":"citadel","historic":"castle","name":"Ancien évêché de Lausanne","wikidata":"Q2845848","wikipedia":"fr:Ancien évêché de Lausanne","id":"way/44176017"},"geometry":{"type":"Polygon","coordinates":[[[6.6348364,46.5219481],[6.6348562,46.5219519],[6.6348494,46.5219891],[6.6349348,46.521998],[6.6349967,46.5220045],[6.6351027,46.5220156],[6.6351158,46.522263],[6.6347071,46.5222177],[6.6347587,46.5220149],[6.6346452,46.5220052],[6.6346057,46.5220019],[6.6346102,46.5219768],[6.6346191,46.5219519],[6.6346049,46.5219506],[6.6346118,46.5219163],[6.6346408,46.5219188],[6.6346386,46.5219312],[6.6348364,46.5219481]]]}},{"type":"Feature","id":"way/44386403","properties":{"timestamp":"2018-10-25T10:13:29Z","version":"9","changeset":"63862009","user":"-WI-","uid":"102162","addr:housenumber":"2","addr:postcode":"1003","addr:street":"Place de la Palud","amenity":"townhall","building":"yes","name":"Hôtel de Ville","source":"Lausanne - Orthophoto technique 2012","wikidata":"Q3146152","id":"way/44386403"},"geometry":{"type":"Polygon","coordinates":[[[6.6327297,46.5219912],[6.6325762,46.5218799],[6.6324706,46.5218218],[6.6324495,46.5218134],[6.6324619,46.5218067],[6.6326054,46.5216779],[6.6326119,46.5216729],[6.6326495,46.5216379],[6.6325961,46.5216157],[6.6326451,46.5215557],[6.6326614,46.5215409],[6.6327813,46.5215817],[6.6328149,46.5215931],[6.6329276,46.5216284],[6.6329238,46.5216465],[6.6330006,46.5216736],[6.6330925,46.5217173],[6.6329635,46.5218312],[6.6329479,46.5218392],[6.6327297,46.5219912]]]}},{"type":"Feature","id":"way/44387298","properties":{"timestamp":"2015-05-14T11:58:43Z","version":"6","changeset":"31137532","user":"mathieuS","uid":"40504","addr:housenumber":"9","addr:postcode":"1003","addr:street":"Rue Pierre-Viret","building":"yes","source":"Lausanne - Orthophoto technique 2012","id":"way/44387298"},"geometry":{"type":"Polygon","coordinates":[[[6.6337495,46.5225407],[6.6336937,46.5226017],[6.6336327,46.5225806],[6.6336874,46.5225036],[6.6336484,46.5224926],[6.6336819,46.5224584],[6.6337979,46.5224874],[6.6337495,46.5225407]]]}},{"type":"Feature","id":"way/44387767","properties":{"timestamp":"2015-05-14T13:07:41Z","version":"7","changeset":"31140399","user":"mathieuS","uid":"40504","addr:housenumber":"1","addr:postcode":"1003","addr:street":"Place de la Louve","building":"yes","source":"Lausanne - Orthophoto technique 2012","id":"way/44387767"},"geometry":{"type":"Polygon","coordinates":[[[6.6322158,46.5218912],[6.6320357,46.5218156],[6.6321318,46.5216638],[6.6323548,46.5217249],[6.6324096,46.5217767],[6.6323286,46.5218664],[6.6323051,46.521858],[6.6322868,46.5218718],[6.6322762,46.5218784],[6.6322449,46.5218624],[6.6322158,46.5218912]]]}},{"type":"Feature","id":"way/44388145","properties":{"timestamp":"2018-07-29T12:55:17Z","version":"9","changeset":"61164121","user":"ttln","uid":"3371382","addr:housenumber":"2","addr:postcode":"1003","addr:street":"Rue William-Haldimand","building":"yes","building:levels":"4","source":"Lausanne - Orthophoto technique 2012","id":"way/44388145"},"geometry":{"type":"Polygon","coordinates":[[[6.6314135,46.5229348],[6.6315753,46.5228629],[6.6316809,46.5229876],[6.6316636,46.5230231],[6.6315191,46.5230719],[6.6314135,46.5229348]]]}},{"type":"Feature","id":"way/44388147","properties":{"timestamp":"2018-11-13T11:09:17Z","version":"9","changeset":"64438163","user":"mathieuS","uid":"40504","addr:city":"Lausanne","addr:country":"CH","addr:housenumber":"13","addr:postcode":"1003","addr:street":"Rue Saint-Laurent","amenity":"place_of_worship","building":"yes","copyright":"OpenAddresses","denomination":"protestant","name":"Église Saint-Laurent","oa:imported_by":"sbrunner","oa:lat":"46.52228165","oa:lon":"6.63090324","oa:version":"oa2osm - 0.2 - sax","religion":"christian","source":"Orthophoto Ville de Lausanne 2008","wikidata":"Q3586118","wikipedia":"de:Saint-Laurent (Lausanne)","id":"way/44388147"},"geometry":{"type":"Polygon","coordinates":[[[6.6306972,46.5223352],[6.6306921,46.5222608],[6.6306874,46.522191],[6.6309901,46.5221812],[6.6310545,46.522217],[6.6310615,46.5222757],[6.6310012,46.5223254],[6.6306972,46.5223352]]]}},{"type":"Feature","id":"way/44388151","properties":{"timestamp":"2015-05-15T08:48:47Z","version":"5","changeset":"31165263","user":"mathieuS","uid":"40504","addr:housenumber":"2","addr:postcode":"1003","addr:street":"Rue de la Louve","building":"yes","source":"Lausanne - Orthophoto technique 2012","id":"way/44388151"},"geometry":{"type":"Polygon","coordinates":[[[6.6317758,46.5222969],[6.631752,46.5222114],[6.6318113,46.5221917],[6.6319192,46.5222902],[6.6318909,46.5223127],[6.6317758,46.5222969]]]}},{"type":"Feature","id":"way/44389806","properties":{"timestamp":"2015-05-14T12:03:14Z","version":"5","changeset":"31137679","user":"mathieuS","uid":"40504","building":"yes","source":"Lausanne - Orthophoto technique 2012","id":"way/44389806"},"geometry":{"type":"Polygon","coordinates":[[[6.6346271,46.5217418],[6.6345447,46.521772],[6.6344601,46.521803],[6.6343682,46.5216851],[6.6343883,46.5216887],[6.6345459,46.521635],[6.634589,46.5216917],[6.6346271,46.5217418]]]}},{"type":"Feature","id":"way/44389807","properties":{"timestamp":"2015-05-02T10:22:39Z","version":"6","changeset":"30717205","user":"mathieuS","uid":"40504","building":"roof","source":"Lausanne - Orthophoto technique 2012","id":"way/44389807"},"geometry":{"type":"Polygon","coordinates":[[[6.6338618,46.5222054],[6.6338059,46.5221516],[6.6337879,46.5221232],[6.6337798,46.5220706],[6.6338003,46.5220689],[6.6338276,46.5220664],[6.6338306,46.5221222],[6.6338494,46.5221473],[6.6338911,46.52219],[6.6338772,46.5221975],[6.6338618,46.5222054]]]}},{"type":"Feature","id":"way/44389808","properties":{"timestamp":"2015-05-01T21:42:52Z","version":"6","changeset":"30705311","user":"mathieuS","uid":"40504","building":"roof","source":"Lausanne - Orthophoto technique 2012","id":"way/44389808"},"geometry":{"type":"Polygon","coordinates":[[[6.6341402,46.5223507],[6.6340524,46.5223236],[6.6339795,46.522281],[6.6338967,46.5222276],[6.6339033,46.5222191],[6.6339397,46.5221716],[6.6339572,46.5221775],[6.6339713,46.5221823],[6.6339838,46.5221865],[6.633943,46.522228],[6.6340591,46.5222975],[6.6341004,46.5223086],[6.6341067,46.5223077],[6.6341138,46.5223067],[6.6341526,46.5222417],[6.6341526,46.5222387],[6.6341528,46.5222255],[6.6341684,46.5222275],[6.63419,46.5222302],[6.634189,46.5222454],[6.6341488,46.5223325],[6.6341402,46.5223507]]]}},{"type":"Feature","id":"way/44604942","properties":{"timestamp":"2015-05-23T12:11:49Z","version":"6","changeset":"31396157","user":"mathieuS","uid":"40504","addr:city":"Lausanne","addr:country":"CH","addr:housenumber":"4","addr:postcode":"1005","addr:street":"Rue Louis-Auguste-Curtat","building":"yes","source":"Lausanne - Orthophoto technique 2012","id":"way/44604942"},"geometry":{"type":"Polygon","coordinates":[[[6.6361747,46.5218752],[6.6360246,46.5218835],[6.6359759,46.5218252],[6.6359617,46.5217911],[6.635959,46.5217493],[6.6361555,46.5217708],[6.6361539,46.5217918],[6.6362016,46.5218654],[6.6361747,46.5218752]]]}},{"type":"Feature","id":"way/44607168","properties":{"timestamp":"2019-12-09T08:50:18Z","version":"7","changeset":"78138470","user":"asdf2","uid":"1416503","building":"public","government":"legislative","name":"Parlement vaudois","office":"government","source":"Orthophoto Ville de Lausanne 2008","wikidata":"Q75181974","id":"way/44607168"},"geometry":{"type":"Polygon","coordinates":[[[6.6350719,46.5243843],[6.6350217,46.5242813],[6.6349731,46.5242925],[6.6348718,46.5240846],[6.6349117,46.5240754],[6.6350863,46.5240336],[6.6351022,46.5240662],[6.6351167,46.5240958],[6.63525,46.5240665],[6.6352942,46.5241571],[6.6353658,46.5241314],[6.6353632,46.5241232],[6.6354955,46.5240835],[6.6355444,46.5241388],[6.6355549,46.5241506],[6.6354813,46.5241685],[6.6354672,46.5241486],[6.6353568,46.5241796],[6.6353859,46.524235],[6.6352942,46.5242561],[6.6353218,46.5243128],[6.6353353,46.5243097],[6.6353455,46.5243307],[6.6352664,46.5243489],[6.6351834,46.5243681],[6.6351793,46.5243596],[6.6350719,46.5243843]]]}},{"type":"Feature","id":"way/44609667","properties":{"timestamp":"2010-03-19T14:46:19Z","version":"4","changeset":"4170713","user":"Stéphane Brunner","uid":"17835","building":"yes","source":"Orthophoto Ville de Lausanne 2008","id":"way/44609667"},"geometry":{"type":"Polygon","coordinates":[[[6.6318068,46.5225626],[6.6317633,46.5225964],[6.6316724,46.5225408],[6.6317159,46.5225071],[6.6318068,46.5225626]]]}},{"type":"Feature","id":"way/44610243","properties":{"timestamp":"2015-05-14T13:07:42Z","version":"3","changeset":"31140399","user":"mathieuS","uid":"40504","addr:housenumber":"8","addr:postcode":"1003","addr:street":"Place de la Palud","building":"yes","source":"Lausanne - Orthophoto technique 2012","id":"way/44610243"},"geometry":{"type":"Polygon","coordinates":[[[6.6321215,46.5219764],[6.6321869,46.5219152],[6.6323099,46.5219921],[6.6323455,46.5220351],[6.6323801,46.5220769],[6.632455,46.5221676],[6.6324155,46.5221967],[6.6323213,46.522097],[6.6323449,46.5220807],[6.6323123,46.5220583],[6.6322887,46.5220746],[6.6321215,46.5219764]]]}},{"type":"Feature","id":"way/44650637","properties":{"timestamp":"2018-11-13T09:35:10Z","version":"7","changeset":"64435163","user":"mathieuS","uid":"40504","addr:city":"Lausanne","addr:country":"CH","amenity":"place_of_worship","building":"church","denomination":"evangelical","name":"Basilique Notre-Dame","religion":"christian","source":"Orthophoto Ville de Lausanne 2008","wikidata":"Q2002443","id":"way/44650637"},"geometry":{"type":"Polygon","coordinates":[[[6.6305764,46.5237374],[6.6305062,46.5236785],[6.630882,46.5234662],[6.6309037,46.5234844],[6.6309925,46.5234342],[6.6310234,46.5234601],[6.6310451,46.5234479],[6.6310625,46.5234625],[6.6311737,46.5235557],[6.6311482,46.5235701],[6.6311749,46.5235925],[6.6311205,46.5236232],[6.6307281,46.5238448],[6.6306902,46.523813],[6.6306649,46.5238264],[6.6306339,46.5238318],[6.6306023,46.5238283],[6.6305753,46.5238166],[6.6305572,46.5237984],[6.6305511,46.5237768],[6.6305578,46.5237553],[6.6305764,46.5237374]]]}},{"type":"Feature","id":"way/44650691","properties":{"timestamp":"2015-05-02T09:46:50Z","version":"3","changeset":"30716332","user":"mathieuS","uid":"40504","addr:housenumber":"12","addr:street":"Place de la Riponne","building":"yes","id":"way/44650691"},"geometry":{"type":"Polygon","coordinates":[[[6.632324,46.5231],[6.6322646,46.5230139],[6.6324603,46.52295],[6.6325196,46.5230361],[6.632324,46.5231]]]}},{"type":"Feature","id":"way/46881374","properties":{"timestamp":"2018-07-29T12:55:19Z","version":"4","changeset":"61164121","user":"ttln","uid":"3371382","addr:housenumber":"5bis","addr:postcode":"1005","addr:street":"Place de la Riponne","amenity":"place_of_worship","building":"church","building:levels":"5","name":"Église évangélique méthodiste","religion":"christian","source":"Lausanne - Orthophoto technique 2012","id":"way/46881374"},"geometry":{"type":"Polygon","coordinates":[[[6.6321506,46.5238992],[6.632133,46.5238793],[6.631979,46.5239435],[6.6318617,46.5238103],[6.6319715,46.5237646],[6.6320768,46.5237206],[6.6320933,46.5237393],[6.6321159,46.5237298],[6.6321946,46.5238191],[6.6321823,46.5238242],[6.6322563,46.5239082],[6.6322239,46.5239217],[6.6321847,46.523938],[6.6321506,46.5238992]]]}},{"type":"Feature","id":"way/46881375","properties":{"timestamp":"2015-05-16T15:58:48Z","version":"2","changeset":"31204908","user":"mathieuS","uid":"40504","building":"yes","source":"Lausanne - Orthophoto technique 2012","id":"way/46881375"},"geometry":{"type":"Polygon","coordinates":[[[6.6321506,46.5238992],[6.6321847,46.523938],[6.6322239,46.5239217],[6.632259,46.5239617],[6.6322884,46.523995],[6.6322076,46.5240287],[6.6322015,46.5240217],[6.6320822,46.5240715],[6.6320351,46.524018],[6.6319896,46.5239663],[6.6321506,46.5238992]]]}},{"type":"Feature","id":"way/46881846","properties":{"timestamp":"2015-10-15T19:55:22Z","version":"2","changeset":"34662884","user":"mathieuS","uid":"40504","addr:city":"Lausanne","addr:country":"CH","addr:housenumber":"13","addr:street":"Rue du Valentin","building":"yes","source":"Lausanne - Orthophoto technique 2012","id":"way/46881846"},"geometry":{"type":"Polygon","coordinates":[[[6.6313833,46.5238955],[6.6313208,46.5239337],[6.6313014,46.5239446],[6.6313116,46.5239532],[6.6312752,46.5239737],[6.6311433,46.5238627],[6.6312835,46.5237837],[6.6314666,46.5237108],[6.6315374,46.5236851],[6.6316036,46.523786],[6.6314964,46.5238294],[6.6315057,46.52384],[6.6313833,46.5238955]]]}},{"type":"Feature","id":"way/46881850","properties":{"timestamp":"2009-12-23T13:35:33Z","version":"1","changeset":"3434575","user":"Stéphane Brunner","uid":"17835","building":"yes","source":"Orthophotos de la Ville de Lausanne (2008)","id":"way/46881850"},"geometry":{"type":"Polygon","coordinates":[[[6.6313945,46.5241201],[6.6312752,46.5239737],[6.6313116,46.5239532],[6.6313014,46.5239446],[6.6313208,46.5239337],[6.6314465,46.5240785],[6.631422,46.5241008],[6.6313945,46.5241201]]]}},{"type":"Feature","id":"way/48686543","properties":{"timestamp":"2018-07-29T12:55:17Z","version":"5","changeset":"61164121","user":"ttln","uid":"3371382","addr:housenumber":"1","addr:postcode":"1003","addr:street":"Rue William-Haldimand","building":"yes","building:levels":"4","source":"Lausanne - Orthophoto technique 2012","id":"way/48686543"},"geometry":{"type":"Polygon","coordinates":[[[6.6318528,46.5228076],[6.6319046,46.5228785],[6.6319106,46.5228865],[6.6319296,46.5229109],[6.6319172,46.5229151],[6.6318117,46.5229511],[6.6317583,46.5229581],[6.6316864,46.5228681],[6.6318528,46.5228076]]]}},{"type":"Feature","id":"way/52774171","properties":{"timestamp":"2015-05-15T15:59:28Z","version":"3","changeset":"31180645","user":"mathieuS","uid":"40504","addr:housenumber":"2","addr:postcode":"1003","addr:street":"Rue Adrien-Pichard","building":"yes","source":"Lausanne - Orthophoto technique 2012","id":"way/52774171"},"geometry":{"type":"Polygon","coordinates":[[[6.6302685,46.5222907],[6.6303251,46.5221696],[6.6303496,46.5221257],[6.6305113,46.5221628],[6.6304486,46.5222992],[6.6304095,46.5223197],[6.6302685,46.5222907]]]}},{"type":"Feature","id":"way/52781564","properties":{"timestamp":"2015-05-15T15:59:27Z","version":"2","changeset":"31180645","user":"mathieuS","uid":"40504","addr:housenumber":"10","addr:postcode":"1003","addr:street":"Rue du Grand-Pont","building":"yes","source":"Lausanne - Orthophoto technique 2012","id":"way/52781564"},"geometry":{"type":"Polygon","coordinates":[[[6.6304556,46.5217909],[6.6302538,46.5216735],[6.6303619,46.521586],[6.6304702,46.5216598],[6.6305447,46.5217098],[6.6304556,46.5217909]]]}},{"type":"Feature","id":"way/52781567","properties":{"timestamp":"2015-05-15T15:59:28Z","version":"4","changeset":"31180645","user":"mathieuS","uid":"40504","addr:housenumber":"20","addr:postcode":"1003","addr:street":"Rue Adrien-Pichard","building":"yes","source":"Lausanne - Orthophoto technique 2012","id":"way/52781567"},"geometry":{"type":"Polygon","coordinates":[[[6.6307332,46.5217731],[6.6305786,46.5216757],[6.6307265,46.521558],[6.63081,46.5215686],[6.6308108,46.521594],[6.6308062,46.5216733],[6.6308179,46.5216883],[6.6308082,46.5217026],[6.6307907,46.521703],[6.6307332,46.5217731]]]}},{"type":"Feature","id":"way/52781568","properties":{"timestamp":"2015-05-15T15:59:28Z","version":"2","changeset":"31180645","user":"mathieuS","uid":"40504","addr:housenumber":"8","addr:postcode":"1003","addr:street":"Rue du Grand-Pont","building":"yes","source":"Lausanne - Orthophoto technique 2012","id":"way/52781568"},"geometry":{"type":"Polygon","coordinates":[[[6.6304702,46.5216598],[6.6303619,46.521586],[6.6305497,46.5214376],[6.6307265,46.521558],[6.6305786,46.5216757],[6.6305053,46.5216314],[6.6304702,46.5216598]]]}},{"type":"Feature","id":"way/52781571","properties":{"timestamp":"2018-09-28T17:47:05Z","version":"4","changeset":"63016497","user":"sissou","uid":"13303","building":"apartments","source":"Lausanne - Orthophoto technique 2012","id":"way/52781571"},"geometry":{"type":"Polygon","coordinates":[[[6.63081,46.5215686],[6.6307265,46.521558],[6.6305497,46.5214376],[6.6306174,46.5213852],[6.6307129,46.5213109],[6.6307183,46.5213141],[6.6307412,46.5213021],[6.6307722,46.5213001],[6.630799,46.5213085],[6.6308144,46.521322],[6.6308285,46.5213359],[6.6308347,46.5213356],[6.6308262,46.5214481],[6.63081,46.5215686]]]}},{"type":"Feature","id":"way/52781575","properties":{"timestamp":"2018-09-28T17:46:34Z","version":"3","changeset":"63016497","user":"sissou","uid":"13303","addr:housenumber":"12","addr:postcode":"1003","addr:street":"Rue du Grand-Pont","building":"apartments","source":"Lausanne - Orthophoto technique 2012","id":"way/52781575"},"geometry":{"type":"Polygon","coordinates":[[[6.630205,46.521885],[6.6300805,46.5218106],[6.6302538,46.5216735],[6.6304556,46.5217909],[6.6305156,46.5218213],[6.6304005,46.5219181],[6.6302506,46.5218435],[6.630205,46.521885]]]}},{"type":"Feature","id":"way/52781596","properties":{"timestamp":"2015-05-15T15:59:26Z","version":"2","changeset":"31180645","user":"mathieuS","uid":"40504","addr:housenumber":"10","addr:postcode":"1003","addr:street":"Rue Adrien-Pichard","building":"yes","source":"Lausanne - Orthophoto technique 2012","id":"way/52781596"},"geometry":{"type":"Polygon","coordinates":[[[6.6305673,46.5220376],[6.6303809,46.521961],[6.6303545,46.52195],[6.6303184,46.521935],[6.6302213,46.5218922],[6.630205,46.521885],[6.6302506,46.5218435],[6.6304005,46.5219181],[6.6305896,46.5219907],[6.6305673,46.5220376]]]}},{"type":"Feature","id":"way/52781598","properties":{"timestamp":"2015-05-15T15:59:29Z","version":"2","changeset":"31180645","user":"mathieuS","uid":"40504","building":"yes","source":"Lausanne - Orthophoto technique 2012","id":"way/52781598"},"geometry":{"type":"Polygon","coordinates":[[[6.6305896,46.5219907],[6.6304005,46.5219181],[6.6305156,46.5218213],[6.6306445,46.5218873],[6.6306316,46.5219116],[6.6306033,46.5219648],[6.6305896,46.5219907]]]}},{"type":"Feature","id":"way/52781612","properties":{"timestamp":"2015-05-15T15:59:27Z","version":"2","changeset":"31180645","user":"mathieuS","uid":"40504","addr:housenumber":"18","addr:postcode":"1003","addr:street":"Rue Adrien-Pichard","building":"yes","source":"Lausanne - Orthophoto technique 2012","id":"way/52781612"},"geometry":{"type":"Polygon","coordinates":[[[6.6305786,46.5216757],[6.6307332,46.5217731],[6.630701,46.5218146],[6.630604,46.5217527],[6.6305447,46.5217098],[6.6304702,46.5216598],[6.6305053,46.5216314],[6.6305786,46.5216757]]]}},{"type":"Feature","id":"way/52781614","properties":{"timestamp":"2015-05-15T15:59:27Z","version":"2","changeset":"31180645","user":"mathieuS","uid":"40504","addr:housenumber":"16","addr:postcode":"1003","addr:street":"Rue Adrien-Pichard","building":"yes","source":"Lausanne - Orthophoto technique 2012","id":"way/52781614"},"geometry":{"type":"Polygon","coordinates":[[[6.6306445,46.5218873],[6.6305156,46.5218213],[6.6304556,46.5217909],[6.6305447,46.5217098],[6.630604,46.5217527],[6.630701,46.5218146],[6.6306445,46.5218873]]]}},{"type":"Feature","id":"way/52781621","properties":{"timestamp":"2015-05-15T15:59:28Z","version":"2","changeset":"31180645","user":"mathieuS","uid":"40504","addr:housenumber":"8","addr:postcode":"1003","addr:street":"Rue Adrien-Pichard","building":"yes","source":"Lausanne - Orthophoto technique 2012","id":"way/52781621"},"geometry":{"type":"Polygon","coordinates":[[[6.6305425,46.5220854],[6.6303949,46.5220349],[6.6304055,46.5220225],[6.6303586,46.5220021],[6.6303809,46.521961],[6.6305673,46.5220376],[6.6305425,46.5220854]]]}},{"type":"Feature","id":"way/52781623","properties":{"timestamp":"2015-05-15T15:59:28Z","version":"2","changeset":"31180645","user":"mathieuS","uid":"40504","addr:housenumber":"6","addr:postcode":"1003","addr:street":"Rue Adrien-Pichard","building":"yes","source":"Lausanne - Orthophoto technique 2012","id":"way/52781623"},"geometry":{"type":"Polygon","coordinates":[[[6.6303949,46.5220349],[6.6305425,46.5220854],[6.6305351,46.522105],[6.6305266,46.5221278],[6.6303583,46.5220869],[6.6302981,46.5220584],[6.6302232,46.5220213],[6.6303184,46.521935],[6.6303545,46.52195],[6.6303231,46.5219836],[6.6303586,46.5220021],[6.6304055,46.5220225],[6.6303949,46.5220349]]]}},{"type":"Feature","id":"way/52782136","properties":{"timestamp":"2015-05-15T16:38:24Z","version":"2","changeset":"31181571","user":"mathieuS","uid":"40504","building":"yes","source":"Lausanne - Orthophoto technique 2012","id":"way/52782136"},"geometry":{"type":"Polygon","coordinates":[[[6.6308208,46.5230004],[6.6307551,46.5230232],[6.6304659,46.5231167],[6.630368,46.5230207],[6.6302246,46.5229259],[6.6301101,46.5228489],[6.6302172,46.5227589],[6.6303603,46.5226387],[6.6304373,46.5225822],[6.6304749,46.5225469],[6.6308208,46.5230004]]]}},{"type":"Feature","id":"way/52782154","properties":{"timestamp":"2015-05-15T16:38:24Z","version":"2","changeset":"31181571","user":"mathieuS","uid":"40504","building":"yes","source":"Lausanne - Orthophoto technique 2012","id":"way/52782154"},"geometry":{"type":"Polygon","coordinates":[[[6.6304689,46.5233059],[6.6304709,46.5231577],[6.6305276,46.5231571],[6.6305688,46.5231567],[6.6306335,46.5233041],[6.6305546,46.5233056],[6.6304689,46.5233059]]]}},{"type":"Feature","id":"way/52782823","properties":{"timestamp":"2018-07-29T12:55:17Z","version":"3","changeset":"61164121","user":"ttln","uid":"3371382","building":"yes","building:levels":"4","source":"Lausanne - Orthophoto technique 2012","id":"way/52782823"},"geometry":{"type":"Polygon","coordinates":[[[6.6311714,46.5230486],[6.6313303,46.5229772],[6.6313682,46.5230169],[6.6313927,46.523008],[6.6314543,46.5230964],[6.6313628,46.5231264],[6.6312826,46.5231528],[6.6311714,46.5230486]]]}},{"type":"Feature","id":"way/52782827","properties":{"timestamp":"2015-05-15T21:01:04Z","version":"2","changeset":"31187613","user":"mathieuS","uid":"40504","addr:housenumber":"6","addr:postcode":"1003","addr:street":"Rue Chaucrau","building":"yes","source":"Lausanne - Orthophoto technique 2012","id":"way/52782827"},"geometry":{"type":"Polygon","coordinates":[[[6.63101,46.5227031],[6.6310863,46.5227746],[6.6309474,46.5228274],[6.6308872,46.5227528],[6.63101,46.5227031]]]}},{"type":"Feature","id":"way/52782830","properties":{"timestamp":"2015-05-15T21:01:03Z","version":"2","changeset":"31187613","user":"mathieuS","uid":"40504","addr:housenumber":"10","addr:postcode":"1003","addr:street":"Rue William-Haldimand","building":"yes","source":"Lausanne - Orthophoto technique 2012","id":"way/52782830"},"geometry":{"type":"Polygon","coordinates":[[[6.6310497,46.5226854],[6.6309691,46.522655],[6.630909,46.5226302],[6.6309322,46.5225965],[6.6309847,46.52252],[6.6311458,46.522573],[6.6310497,46.5226854]]]}},{"type":"Feature","id":"way/52782836","properties":{"timestamp":"2015-05-15T21:01:05Z","version":"3","changeset":"31187613","user":"mathieuS","uid":"40504","building":"yes","source":"Lausanne - Orthophoto technique 2012","id":"way/52782836"},"geometry":{"type":"Polygon","coordinates":[[[6.6309847,46.52252],[6.6309322,46.5225965],[6.6309069,46.5225893],[6.6308878,46.5226211],[6.6308936,46.5226326],[6.6308052,46.5226464],[6.6307568,46.5224967],[6.6307936,46.5224725],[6.6308852,46.5224942],[6.630939,46.522507],[6.6309847,46.52252]]]}},{"type":"Feature","id":"way/52782838","properties":{"timestamp":"2015-05-15T21:01:05Z","version":"2","changeset":"31187613","user":"mathieuS","uid":"40504","addr:housenumber":"8","addr:postcode":"1003","addr:street":"Rue William-Haldimand","building":"yes","source":"Lausanne - Orthophoto technique 2012","id":"way/52782838"},"geometry":{"type":"Polygon","coordinates":[[[6.6310497,46.5226854],[6.6311458,46.522573],[6.6312987,46.5226513],[6.6311909,46.52275],[6.6310497,46.5226854]]]}},{"type":"Feature","id":"way/52782840","properties":{"timestamp":"2015-05-15T21:01:04Z","version":"2","changeset":"31187613","user":"mathieuS","uid":"40504","addr:housenumber":"4","addr:postcode":"1003","addr:street":"Rue Chaucrau","building":"yes","source":"Lausanne - Orthophoto technique 2012","id":"way/52782840"},"geometry":{"type":"Polygon","coordinates":[[[6.630909,46.5226302],[6.6309691,46.522655],[6.6309633,46.5226636],[6.63101,46.5227031],[6.6308872,46.5227528],[6.6308052,46.5226464],[6.6308936,46.5226326],[6.630909,46.5226302]]]}},{"type":"Feature","id":"way/52782843","properties":{"timestamp":"2015-05-15T21:01:03Z","version":"2","changeset":"31187613","user":"mathieuS","uid":"40504","addr:housenumber":"10","addr:postcode":"1003","addr:street":"Rue Chaucrau","building":"yes","source":"Lausanne - Orthophoto technique 2012","id":"way/52782843"},"geometry":{"type":"Polygon","coordinates":[[[6.6311926,46.5228298],[6.6312285,46.5228745],[6.631046,46.5229398],[6.631005,46.5228951],[6.6311926,46.5228298]]]}},{"type":"Feature","id":"way/52782844","properties":{"timestamp":"2015-05-15T21:01:04Z","version":"2","changeset":"31187613","user":"mathieuS","uid":"40504","addr:housenumber":"8","addr:postcode":"1003","addr:street":"Rue Chaucrau","building":"yes","source":"Lausanne - Orthophoto technique 2012","id":"way/52782844"},"geometry":{"type":"Polygon","coordinates":[[[6.6311926,46.5228298],[6.631005,46.5228951],[6.6309474,46.5228274],[6.6310863,46.5227746],[6.6311295,46.5227552],[6.6311926,46.5228298]]]}},{"type":"Feature","id":"way/52782855","properties":{"timestamp":"2015-05-15T21:01:04Z","version":"2","changeset":"31187613","user":"mathieuS","uid":"40504","addr:housenumber":"4","addr:postcode":"1003","addr:street":"Rue William-Haldimand","building":"yes","source":"Lausanne - Orthophoto technique 2012","id":"way/52782855"},"geometry":{"type":"Polygon","coordinates":[[[6.631318,46.5228292],[6.6314442,46.5227422],[6.6315753,46.5228629],[6.6314135,46.5229348],[6.6313895,46.5229038],[6.6313761,46.5229091],[6.6313587,46.5228921],[6.6313721,46.5228869],[6.631318,46.5228292]]]}},{"type":"Feature","id":"way/52782867","properties":{"timestamp":"2015-05-15T21:01:03Z","version":"2","changeset":"31187613","user":"mathieuS","uid":"40504","addr:housenumber":"14","addr:postcode":"1003","addr:street":"Rue Chaucrau","building":"yes","source":"Lausanne - Orthophoto technique 2012","id":"way/52782867"},"geometry":{"type":"Polygon","coordinates":[[[6.6313303,46.5229772],[6.6311714,46.5230486],[6.6310952,46.5229799],[6.6312703,46.5229225],[6.6313303,46.5229772]]]}},{"type":"Feature","id":"way/52782868","properties":{"timestamp":"2015-05-15T21:01:03Z","version":"2","changeset":"31187613","user":"mathieuS","uid":"40504","addr:housenumber":"12","addr:postcode":"1003","addr:street":"Rue Chaucrau","building":"yes","source":"Lausanne - Orthophoto technique 2012","id":"way/52782868"},"geometry":{"type":"Polygon","coordinates":[[[6.6312285,46.5228745],[6.6312734,46.5228578],[6.6313117,46.5229076],[6.6312703,46.5229225],[6.6310952,46.5229799],[6.631046,46.5229398],[6.6312285,46.5228745]]]}},{"type":"Feature","id":"way/52782875","properties":{"timestamp":"2015-05-15T21:01:04Z","version":"2","changeset":"31187613","user":"mathieuS","uid":"40504","addr:housenumber":"6","addr:postcode":"1003","addr:street":"Rue William-Haldimand","building":"yes","source":"Lausanne - Orthophoto technique 2012","id":"way/52782875"},"geometry":{"type":"Polygon","coordinates":[[[6.6311909,46.52275],[6.6312987,46.5226513],[6.6314442,46.5227422],[6.631318,46.5228292],[6.6311909,46.52275]]]}},{"type":"Feature","id":"way/52783131","properties":{"timestamp":"2015-05-13T21:38:13Z","version":"2","changeset":"31115828","user":"mathieuS","uid":"40504","addr:housenumber":"12","addr:postcode":"1003","addr:street":"Rue Saint-Laurent","building":"yes","source":"Lausanne - Orthophoto technique 2012","id":"way/52783131"},"geometry":{"type":"Polygon","coordinates":[[[6.6315613,46.5223621],[6.6318046,46.5223529],[6.6317556,46.5224547],[6.6318046,46.5224902],[6.6317179,46.5224937],[6.6317185,46.522501],[6.6316609,46.5225034],[6.6316603,46.5224961],[6.6315755,46.5225005],[6.6315613,46.5223621]]]}},{"type":"Feature","id":"way/52783132","properties":{"timestamp":"2015-05-13T21:38:16Z","version":"2","changeset":"31115828","user":"mathieuS","uid":"40504","building":"yes","source":"Lausanne - Orthophoto technique 2012","id":"way/52783132"},"geometry":{"type":"Polygon","coordinates":[[[6.6318901,46.5227802],[6.6318528,46.5228076],[6.6316864,46.5228681],[6.6316654,46.5228477],[6.6315691,46.5227546],[6.6317412,46.5226499],[6.6318714,46.5227638],[6.6318901,46.5227802]]]}},{"type":"Feature","id":"way/52783133","properties":{"timestamp":"2015-05-13T21:38:14Z","version":"2","changeset":"31115828","user":"mathieuS","uid":"40504","addr:housenumber":"5","addr:postcode":"1003","addr:street":"Rue William-Haldimand","building":"yes","source":"Lausanne - Orthophoto technique 2012","id":"way/52783133"},"geometry":{"type":"Polygon","coordinates":[[[6.6316854,46.5225893],[6.6317287,46.5226216],[6.6317551,46.5226403],[6.6317412,46.5226499],[6.6315691,46.5227546],[6.6314983,46.5226953],[6.6316854,46.5225893]]]}},{"type":"Feature","id":"way/52783142","properties":{"timestamp":"2015-05-13T21:38:15Z","version":"2","changeset":"31115828","user":"mathieuS","uid":"40504","addr:housenumber":"9","addr:postcode":"1003","addr:street":"Rue William-Haldimand","building":"yes","source":"Lausanne - Orthophoto technique 2012","id":"way/52783142"},"geometry":{"type":"Polygon","coordinates":[[[6.6312578,46.5224828],[6.6313527,46.5224743],[6.6313589,46.5225212],[6.6314294,46.5225112],[6.6314539,46.5225066],[6.6314714,46.5225466],[6.6314752,46.5225613],[6.6313896,46.5226218],[6.6312355,46.5225387],[6.6312574,46.5225222],[6.6312578,46.5224828]]]}},{"type":"Feature","id":"way/52783143","properties":{"timestamp":"2015-05-13T21:38:15Z","version":"2","changeset":"31115828","user":"mathieuS","uid":"40504","addr:housenumber":"7","addr:postcode":"1003","addr:street":"Rue William-Haldimand","building":"yes","source":"Lausanne - Orthophoto technique 2012","id":"way/52783143"},"geometry":{"type":"Polygon","coordinates":[[[6.6313896,46.5226218],[6.6314752,46.5225613],[6.6315328,46.5225406],[6.6315616,46.5225119],[6.6316854,46.5225893],[6.6314983,46.5226953],[6.6313896,46.5226218]]]}},{"type":"Feature","id":"way/52783144","properties":{"timestamp":"2015-05-13T21:38:13Z","version":"2","changeset":"31115828","user":"mathieuS","uid":"40504","addr:housenumber":"14","addr:postcode":"1003","addr:street":"Rue Saint-Laurent","building":"yes","source":"Lausanne - Orthophoto technique 2012","id":"way/52783144"},"geometry":{"type":"Polygon","coordinates":[[[6.6315755,46.5225005],[6.6315278,46.522504],[6.6315279,46.5225335],[6.6314714,46.5225466],[6.6314539,46.5225066],[6.6314294,46.5225112],[6.6314139,46.5224687],[6.6313787,46.5223732],[6.6315613,46.5223621],[6.6315755,46.5225005]]]}},{"type":"Feature","id":"way/52783145","properties":{"timestamp":"2015-05-13T21:38:14Z","version":"2","changeset":"31115828","user":"mathieuS","uid":"40504","addr:housenumber":"16","addr:postcode":"1003","addr:street":"Rue Saint-Laurent","building":"yes","source":"Lausanne - Orthophoto technique 2012","id":"way/52783145"},"geometry":{"type":"Polygon","coordinates":[[[6.6314139,46.5224687],[6.6313527,46.5224743],[6.6312578,46.5224828],[6.6312541,46.5224608],[6.6312079,46.5223815],[6.6313787,46.5223732],[6.6314139,46.5224687]]]}},{"type":"Feature","id":"way/52783149","properties":{"timestamp":"2015-05-13T21:38:16Z","version":"3","changeset":"31115828","user":"mathieuS","uid":"40504","building":"yes","source":"Lausanne - Orthophoto technique 2012","id":"way/52783149"},"geometry":{"type":"Polygon","coordinates":[[[6.6319046,46.5228785],[6.6318528,46.5228076],[6.6318901,46.5227802],[6.6319266,46.5227647],[6.6319879,46.5228514],[6.6319046,46.5228785]]]}},{"type":"Feature","id":"way/52783151","properties":{"timestamp":"2015-05-13T21:38:15Z","version":"2","changeset":"31115828","user":"mathieuS","uid":"40504","addr:housenumber":"8","addr:postcode":"1003","addr:street":"Rue Saint-Laurent","building":"yes","source":"Lausanne - Orthophoto technique 2012","id":"way/52783151"},"geometry":{"type":"Polygon","coordinates":[[[6.6318046,46.5224902],[6.6317556,46.5224547],[6.6318046,46.5223529],[6.6319653,46.5223746],[6.632049,46.5224374],[6.6319701,46.5224422],[6.6318175,46.5225388],[6.6317717,46.5225093],[6.6318046,46.5224902]]]}},{"type":"Feature","id":"way/52783687","properties":{"timestamp":"2015-05-15T08:48:47Z","version":"2","changeset":"31165263","user":"mathieuS","uid":"40504","addr:housenumber":"6","addr:postcode":"1003","addr:street":"Rue de la Louve","building":"yes","source":"Lausanne - Orthophoto technique 2012","id":"way/52783687"},"geometry":{"type":"Polygon","coordinates":[[[6.6315369,46.5219269],[6.6315115,46.5219179],[6.6316309,46.5218071],[6.6316479,46.5218177],[6.6316639,46.5218064],[6.6316875,46.5218169],[6.6317049,46.5218271],[6.6318702,46.5219236],[6.6317827,46.5220529],[6.6316518,46.5219837],[6.6316573,46.5219748],[6.6315369,46.5219269]]]}},{"type":"Feature","id":"way/52783691","properties":{"timestamp":"2015-05-15T08:48:47Z","version":"2","changeset":"31165263","user":"mathieuS","uid":"40504","addr:housenumber":"4","addr:postcode":"1003","addr:street":"Ruelle Grand-Saint-Jean","building":"yes","source":"Lausanne - Orthophoto technique 2012","id":"way/52783691"},"geometry":{"type":"Polygon","coordinates":[[[6.6317922,46.5216897],[6.6316875,46.5218169],[6.6316639,46.5218064],[6.6315778,46.521755],[6.6317327,46.5216656],[6.6317922,46.5216897]]]}},{"type":"Feature","id":"way/52783698","properties":{"timestamp":"2015-05-15T08:48:46Z","version":"2","changeset":"31165263","user":"mathieuS","uid":"40504","addr:housenumber":"1","addr:postcode":"1003","addr:street":"Place Grand-Saint-Jean","building":"yes","source":"Lausanne - Orthophoto technique 2012","id":"way/52783698"},"geometry":{"type":"Polygon","coordinates":[[[6.6311008,46.52198],[6.6311606,46.5220029],[6.6311468,46.5220342],[6.6309777,46.5219995],[6.6310098,46.5219486],[6.630965,46.521937],[6.6307545,46.5218777],[6.6308067,46.5217944],[6.6308285,46.5217861],[6.6308524,46.5217884],[6.6311294,46.5218937],[6.6311008,46.52198]]]}},{"type":"Feature","id":"way/52783705","properties":{"timestamp":"2015-05-15T08:48:48Z","version":"2","changeset":"31165263","user":"mathieuS","uid":"40504","addr:housenumber":"7","addr:postcode":"1003","addr:street":"Rue Adrien-Pichard","building":"yes","source":"Lausanne - Orthophoto technique 2012","id":"way/52783705"},"geometry":{"type":"Polygon","coordinates":[[[6.630896,46.5221195],[6.6306733,46.5221083],[6.6306494,46.5221206],[6.6306212,46.5220906],[6.6306375,46.5220811],[6.6306286,46.5220788],[6.6306693,46.5220032],[6.6308008,46.5220254],[6.6308409,46.5220326],[6.6308766,46.5220363],[6.6308644,46.522091],[6.6309014,46.5220949],[6.630896,46.5221195]]]}},{"type":"Feature","id":"way/52783708","properties":{"timestamp":"2015-05-15T08:48:52Z","version":"2","changeset":"31165263","user":"mathieuS","uid":"40504","addr:housenumber":"9","addr:postcode":"1003","addr:street":"Rue Adrien-Pichard","building":"yes","source":"Lausanne - Orthophoto technique 2012","id":"way/52783708"},"geometry":{"type":"Polygon","coordinates":[[[6.630965,46.521937],[6.6309357,46.5219913],[6.6309777,46.5219995],[6.6309567,46.5220474],[6.6309239,46.5220417],[6.6308766,46.5220363],[6.6308409,46.5220326],[6.6308557,46.5219902],[6.6308155,46.5219835],[6.6308008,46.5220254],[6.6306693,46.5220032],[6.6307545,46.5218777],[6.630965,46.521937]]]}},{"type":"Feature","id":"way/52783713","properties":{"timestamp":"2015-05-15T08:48:47Z","version":"2","changeset":"31165263","user":"mathieuS","uid":"40504","addr:housenumber":"5","addr:postcode":"1003","addr:street":"Rue Adrien-Pichard","building":"yes","source":"Lausanne - Orthophoto technique 2012","id":"way/52783713"},"geometry":{"type":"Polygon","coordinates":[[[6.6309239,46.5220417],[6.6309567,46.5220474],[6.6310684,46.5220608],[6.6310434,46.5221288],[6.630908,46.5221201],[6.6309239,46.5220417]]]}},{"type":"Feature","id":"way/52783718","properties":{"timestamp":"2015-05-15T08:48:48Z","version":"2","changeset":"31165263","user":"mathieuS","uid":"40504","addr:housenumber":"6","addr:postcode":"1003","addr:street":"Ruelle Grand-Saint-Jean","building":"yes","source":"Lausanne - Orthophoto technique 2012","id":"way/52783718"},"geometry":{"type":"Polygon","coordinates":[[[6.6315575,46.5217648],[6.6316309,46.5218071],[6.6315115,46.5219179],[6.6315006,46.5219282],[6.6313895,46.5218825],[6.631467,46.5218133],[6.6315575,46.5217648]]]}},{"type":"Feature","id":"way/52783720","properties":{"timestamp":"2016-04-12T19:39:57Z","version":"3","changeset":"38508894","user":"floyd70","uid":"3068030","building":"yes","source":"Lausanne - Orthophoto technique 2012","id":"way/52783720"},"geometry":{"type":"Polygon","coordinates":[[[6.6309777,46.5219995],[6.6311468,46.5220342],[6.631135,46.5221359],[6.6310745,46.5221308],[6.6310434,46.5221288],[6.6310684,46.5220608],[6.6309567,46.5220474],[6.6309777,46.5219995]]]}},{"type":"Feature","id":"way/52783724","properties":{"timestamp":"2015-05-15T08:48:47Z","version":"2","changeset":"31165263","user":"mathieuS","uid":"40504","addr:housenumber":"4","addr:postcode":"1003","addr:street":"Rue de la Louve","building":"yes","source":"Lausanne - Orthophoto technique 2012","id":"way/52783724"},"geometry":{"type":"Polygon","coordinates":[[[6.6316518,46.5219837],[6.6317827,46.5220529],[6.6317769,46.5220756],[6.6317938,46.5221621],[6.6318113,46.5221917],[6.631752,46.5222114],[6.6316325,46.5222249],[6.6316264,46.522185],[6.6316321,46.5220896],[6.6316518,46.5219837]]]}},{"type":"Feature","id":"way/52783730","properties":{"timestamp":"2015-05-15T08:48:46Z","version":"2","changeset":"31165263","user":"mathieuS","uid":"40504","addr:housenumber":"1","addr:postcode":"1003","addr:street":"Rue Adrien-Pichard","building":"yes","source":"Lausanne - Orthophoto technique 2012","id":"way/52783730"},"geometry":{"type":"Polygon","coordinates":[[[6.6310745,46.5221308],[6.631135,46.5221359],[6.6311571,46.5221383],[6.631156,46.5221611],[6.6311829,46.5221609],[6.6311824,46.5221986],[6.6310829,46.5222017],[6.6310745,46.5221308]]]}},{"type":"Feature","id":"way/52783735","properties":{"timestamp":"2015-05-15T16:38:24Z","version":"2","changeset":"31181571","user":"mathieuS","uid":"40504","building":"yes","source":"Lausanne - Orthophoto technique 2012","id":"way/52783735"},"geometry":{"type":"Polygon","coordinates":[[[6.6308208,46.5230004],[6.6304749,46.5225469],[6.6305147,46.5225079],[6.6305512,46.522472],[6.6306039,46.5224635],[6.6306415,46.5224574],[6.6306513,46.5224463],[6.63069,46.5224591],[6.6306791,46.5224727],[6.6306998,46.5225177],[6.6307714,46.5226574],[6.630742,46.5226674],[6.6307592,46.5226963],[6.630863,46.5228454],[6.6309615,46.5229436],[6.6308208,46.5230004]]]}},{"type":"Feature","id":"way/52783745","properties":{"timestamp":"2015-05-15T08:48:46Z","version":"2","changeset":"31165263","user":"mathieuS","uid":"40504","addr:housenumber":"11","addr:postcode":"1003","addr:street":"Rue Saint-Laurent","building":"yes","source":"Lausanne - Orthophoto technique 2012","id":"way/52783745"},"geometry":{"type":"Polygon","coordinates":[[[6.6311932,46.522328],[6.6311365,46.5223318],[6.6311339,46.5223075],[6.6310983,46.5223056],[6.6310829,46.5222017],[6.6311824,46.5221986],[6.6311932,46.522328]]]}},{"type":"Feature","id":"way/52783750","properties":{"timestamp":"2015-05-15T08:48:52Z","version":"2","changeset":"31165263","user":"mathieuS","uid":"40504","addr:housenumber":"8","addr:postcode":"1003","addr:street":"Rue de la Louve","building":"yes","source":"Lausanne - Orthophoto technique 2012","id":"way/52783750"},"geometry":{"type":"Polygon","coordinates":[[[6.6319692,46.5217657],[6.6318702,46.5219236],[6.6317049,46.5218271],[6.6318127,46.5216985],[6.6319692,46.5217657]]]}},{"type":"Feature","id":"way/52783755","properties":{"timestamp":"2015-05-15T08:48:52Z","version":"2","changeset":"31165263","user":"mathieuS","uid":"40504","building":"yes","source":"Lausanne - Orthophoto technique 2012","id":"way/52783755"},"geometry":{"type":"Polygon","coordinates":[[[6.6319692,46.5217657],[6.6318127,46.5216985],[6.6317922,46.5216897],[6.6317327,46.5216656],[6.631795,46.5216311],[6.6318545,46.5216299],[6.6319062,46.5216288],[6.6320392,46.5216588],[6.6319923,46.5217304],[6.6319692,46.5217657]]]}},{"type":"Feature","id":"way/52783758","properties":{"timestamp":"2015-05-15T08:48:52Z","version":"2","changeset":"31165263","user":"mathieuS","uid":"40504","building":"yes","source":"Lausanne - Orthophoto technique 2012","id":"way/52783758"},"geometry":{"type":"Polygon","coordinates":[[[6.6311824,46.5221986],[6.6311829,46.5221609],[6.631156,46.5221611],[6.6311571,46.5221383],[6.631135,46.5221359],[6.6311468,46.5220342],[6.6311606,46.5220029],[6.6311008,46.52198],[6.6311294,46.5218937],[6.6311801,46.5219153],[6.6312161,46.521928],[6.6312613,46.5219334],[6.6312956,46.5219295],[6.6313251,46.5219183],[6.6313593,46.5219002],[6.6314605,46.521937],[6.6315226,46.5219393],[6.6315369,46.5219269],[6.6316573,46.5219748],[6.6316518,46.5219837],[6.6316321,46.5220896],[6.6316264,46.522185],[6.6316325,46.5222249],[6.631752,46.5222114],[6.6317758,46.5222969],[6.6317067,46.5223004],[6.6314715,46.5223134],[6.6312469,46.5223252],[6.6311932,46.522328],[6.6311824,46.5221986]]]}},{"type":"Feature","id":"way/52783810","properties":{"timestamp":"2015-05-13T21:38:16Z","version":"2","changeset":"31115828","user":"mathieuS","uid":"40504","building":"yes","source":"Lausanne - Orthophoto technique 2012","id":"way/52783810"},"geometry":{"type":"Polygon","coordinates":[[[6.6312541,46.5224608],[6.6312578,46.5224828],[6.6312574,46.5225222],[6.6312355,46.5225387],[6.6310988,46.522494],[6.6309561,46.5224474],[6.6309539,46.5224226],[6.6309513,46.5223937],[6.6311382,46.522384],[6.6312079,46.5223815],[6.6312541,46.5224608]]]}},{"type":"Feature","id":"way/53003360","properties":{"timestamp":"2015-07-19T18:54:50Z","version":"2","changeset":"32738853","user":"mathieuS","uid":"40504","building":"yes","source":"Orthophoto Ville de Lausanne 2008","id":"way/53003360"},"geometry":{"type":"Polygon","coordinates":[[[6.630576,46.5234903],[6.6304799,46.5235258],[6.6303908,46.5235588],[6.6303523,46.5235408],[6.63035,46.523357],[6.6304391,46.5233582],[6.6305227,46.5233594],[6.6305233,46.5234202],[6.630576,46.5234903]]]}},{"type":"Feature","id":"way/53003361","properties":{"timestamp":"2019-06-29T10:18:10Z","version":"7","changeset":"71732643","user":"lpalli","uid":"48434","building":"apartments","building:levels":"5","roof:levels":"1","roof:shape":"half-hipped","source":"Orthophoto Ville de Lausanne 2008","id":"way/53003361"},"geometry":{"type":"Polygon","coordinates":[[[6.630576,46.5234903],[6.6305233,46.5234202],[6.6305227,46.5233594],[6.6306371,46.523361],[6.6307464,46.5233626],[6.6307472,46.5233666],[6.6307531,46.5233653],[6.6307606,46.5233647],[6.6307673,46.5233653],[6.630776,46.5233677],[6.6307831,46.5233712],[6.6307894,46.5233756],[6.6307917,46.5233824],[6.6307933,46.5233927],[6.6307891,46.5234048],[6.6307787,46.5234127],[6.6307635,46.5234176],[6.6307645,46.5234206],[6.6306907,46.5234479],[6.630576,46.5234903]]]}},{"type":"Feature","id":"way/53003363","properties":{"timestamp":"2015-05-15T16:38:23Z","version":"2","changeset":"31181571","user":"mathieuS","uid":"40504","addr:housenumber":"3","addr:postcode":"1003","addr:street":"Rue Neuve","building":"yes","source":"Lausanne - Orthophoto technique 2012","id":"way/53003363"},"geometry":{"type":"Polygon","coordinates":[[[6.6305688,46.5231567],[6.6309909,46.5229939],[6.6311555,46.5231792],[6.6309212,46.5232509],[6.6306335,46.5233041],[6.6305688,46.5231567]]]}},{"type":"Feature","id":"way/53003615","properties":{"timestamp":"2015-05-15T08:57:23Z","version":"2","changeset":"31165480","user":"mathieuS","uid":"40504","addr:housenumber":"9","addr:postcode":"1003","addr:street":"Ruelle Grand-Saint-Jean","building":"yes","source":"Lausanne - Orthophoto technique 2012","id":"way/53003615"},"geometry":{"type":"Polygon","coordinates":[[[6.6315647,46.521698],[6.6314857,46.5216266],[6.6315554,46.521593],[6.6316232,46.5216629],[6.6315647,46.521698]]]}},{"type":"Feature","id":"way/53003620","properties":{"timestamp":"2015-05-15T08:57:24Z","version":"3","changeset":"31165480","user":"mathieuS","uid":"40504","building":"yes","source":"Lausanne - Orthophoto technique 2012","id":"way/53003620"},"geometry":{"type":"Polygon","coordinates":[[[6.6316232,46.5216629],[6.6315554,46.521593],[6.6316582,46.5215252],[6.6316432,46.5215135],[6.6316382,46.5215012],[6.6316389,46.5214899],[6.6315182,46.521538],[6.6314468,46.5214432],[6.6315736,46.5214],[6.6316954,46.5213586],[6.6317073,46.5214661],[6.6317554,46.5215864],[6.6316874,46.5216243],[6.6316232,46.5216629]]]}},{"type":"Feature","id":"way/53003625","properties":{"timestamp":"2015-05-15T08:57:22Z","version":"2","changeset":"31165480","user":"mathieuS","uid":"40504","addr:housenumber":"14","addr:postcode":"1003","addr:street":"Rue Grand-Saint-Jean","building":"yes","source":"Lausanne - Orthophoto technique 2012","id":"way/53003625"},"geometry":{"type":"Polygon","coordinates":[[[6.63144,46.5215754],[6.6313664,46.5214793],[6.6314468,46.5214432],[6.6315182,46.521538],[6.6315478,46.5215695],[6.6314571,46.5216014],[6.63144,46.5215754]]]}},{"type":"Feature","id":"way/53003627","properties":{"timestamp":"2015-05-15T08:57:22Z","version":"2","changeset":"31165480","user":"mathieuS","uid":"40504","addr:housenumber":"18","addr:postcode":"1003","addr:street":"Rue Grand-Saint-Jean","building":"yes","source":"Lausanne - Orthophoto technique 2012","id":"way/53003627"},"geometry":{"type":"Polygon","coordinates":[[[6.6312051,46.5215516],[6.6313016,46.521663],[6.6312179,46.5216928],[6.6311255,46.5215873],[6.6312051,46.5215516]]]}},{"type":"Feature","id":"way/53003628","properties":{"timestamp":"2015-05-15T08:57:22Z","version":"2","changeset":"31165480","user":"mathieuS","uid":"40504","addr:housenumber":"16","addr:postcode":"1003","addr:street":"Rue Grand-Saint-Jean","building":"yes","source":"Lausanne - Orthophoto technique 2012","id":"way/53003628"},"geometry":{"type":"Polygon","coordinates":[[[6.63144,46.5215754],[6.6313707,46.5216078],[6.6313811,46.5216237],[6.6313016,46.521663],[6.6312051,46.5215516],[6.6313664,46.5214793],[6.63144,46.5215754]]]}},{"type":"Feature","id":"way/53003632","properties":{"timestamp":"2015-05-15T08:57:23Z","version":"2","changeset":"31165480","user":"mathieuS","uid":"40504","addr:housenumber":"4","addr:postcode":"1003","addr:street":"Rue Grand-Saint-Jean","building":"yes","source":"Lausanne - Orthophoto technique 2012","id":"way/53003632"},"geometry":{"type":"Polygon","coordinates":[[[6.6318626,46.5213432],[6.6318655,46.5214924],[6.6317826,46.5215001],[6.6317786,46.5214625],[6.6317073,46.5214661],[6.6316954,46.5213586],[6.6318626,46.5213432]]]}},{"type":"Feature","id":"way/53003633","properties":{"timestamp":"2015-05-15T08:57:22Z","version":"3","changeset":"31165480","user":"mathieuS","uid":"40504","addr:housenumber":"3","addr:postcode":"1003","addr:street":"Ruelle Grand-Saint-Jean","building":"yes","source":"Lausanne - Orthophoto technique 2012","id":"way/53003633"},"geometry":{"type":"Polygon","coordinates":[[[6.6318673,46.5215823],[6.6317554,46.5215864],[6.6317073,46.5214661],[6.6317786,46.5214625],[6.6317826,46.5215001],[6.6318655,46.5214924],[6.6318673,46.5215823]]]}},{"type":"Feature","id":"way/53003635","properties":{"timestamp":"2015-05-15T08:57:22Z","version":"2","changeset":"31165480","user":"mathieuS","uid":"40504","addr:housenumber":"11","addr:postcode":"1003","addr:street":"Ruelle Grand-Saint-Jean","building":"yes","source":"Lausanne - Orthophoto technique 2012","id":"way/53003635"},"geometry":{"type":"Polygon","coordinates":[[[6.6313763,46.5218114],[6.6313016,46.5217554],[6.6313602,46.5217254],[6.6313016,46.521663],[6.6313811,46.5216237],[6.6314187,46.521664],[6.6314857,46.5216266],[6.6315647,46.521698],[6.6313763,46.5218114]]]}},{"type":"Feature","id":"way/53003639","properties":{"timestamp":"2015-05-15T08:57:22Z","version":"3","changeset":"31165480","user":"mathieuS","uid":"40504","addr:housenumber":"2","addr:postcode":"1003","addr:street":"Place Grand-Saint-Jean","building":"yes","source":"Lausanne - Orthophoto technique 2012","id":"way/53003639"},"geometry":{"type":"Polygon","coordinates":[[[6.6311156,46.5217385],[6.6312179,46.5216928],[6.6313016,46.5217554],[6.6313763,46.5218114],[6.6313229,46.5218435],[6.6311156,46.5217385]]]}},{"type":"Feature","id":"way/53004668","properties":{"timestamp":"2015-05-15T21:11:16Z","version":"5","changeset":"31187881","user":"mathieuS","uid":"40504","addr:city":"Lausanne","addr:country":"CH","addr:housenumber":"21","addr:postcode":"1003","addr:street":"Rue Grand-Saint-Jean","building":"yes","source":"Orthophoto Ville de Lausanne 2008","id":"way/53004668"},"geometry":{"type":"Polygon","coordinates":[[[6.6312352,46.5214752],[6.6309473,46.5216082],[6.6309246,46.5215997],[6.631077,46.521418],[6.6310893,46.5214225],[6.6311294,46.5213746],[6.6312352,46.5214752]]]}},{"type":"Feature","id":"way/53004670","properties":{"timestamp":"2015-05-15T08:57:22Z","version":"3","changeset":"31165480","user":"mathieuS","uid":"40504","addr:housenumber":"20","addr:postcode":"1003","addr:street":"Rue Grand-Saint-Jean","building":"yes","source":"Lausanne - Orthophoto technique 2012","id":"way/53004670"},"geometry":{"type":"Polygon","coordinates":[[[6.6312179,46.5216928],[6.6311156,46.5217385],[6.6309619,46.5216607],[6.6311255,46.5215873],[6.6312179,46.5216928]]]}},{"type":"Feature","id":"way/53004673","properties":{"timestamp":"2015-05-15T21:11:16Z","version":"5","changeset":"31187881","user":"mathieuS","uid":"40504","addr:city":"Lausanne","addr:country":"CH","addr:housenumber":"4","addr:street":"Place Pépinet","building":"yes","building:levels":"5","source":"Orthophoto Ville de Lausanne 2008","id":"way/53004673"},"geometry":{"type":"Polygon","coordinates":[[[6.6322052,46.5211441],[6.6320145,46.5211025],[6.6320266,46.521081],[6.6321016,46.5209053],[6.6322969,46.5209498],[6.6322052,46.5211441]]]}},{"type":"Feature","id":"way/53004686","properties":{"timestamp":"2018-11-13T11:03:07Z","version":"6","changeset":"64437969","user":"mathieuS","uid":"40504","building":"yes","id":"way/53004686"},"geometry":{"type":"Polygon","coordinates":[[[6.6312348,46.5212272],[6.6311223,46.5212739],[6.6311294,46.521339],[6.6310802,46.5213415],[6.6309003,46.5213507],[6.6308996,46.5212921],[6.630899,46.5212411],[6.630925,46.5212308],[6.6309015,46.5212077],[6.6310603,46.5211358],[6.6311571,46.521092],[6.6311657,46.5211023],[6.6311848,46.521167],[6.6312348,46.5212272]]]}},{"type":"Feature","id":"way/53004689","properties":{"timestamp":"2013-02-06T22:42:52Z","version":"3","changeset":"14939562","user":"mdk","uid":"178186","addr:city":"Lausanne","addr:country":"CH","building":"yes","source":"Orthophoto Ville de Lausanne 2008","id":"way/53004689"},"geometry":{"type":"Polygon","coordinates":[[[6.6313446,46.521234],[6.6312696,46.5212671],[6.6312348,46.5212272],[6.6311848,46.521167],[6.6311657,46.5211023],[6.6312393,46.5210736],[6.6312507,46.5210861],[6.6312575,46.5210856],[6.6313069,46.5211533],[6.6313285,46.521183],[6.6313322,46.5211946],[6.6313446,46.521234]]]}},{"type":"Feature","id":"way/53004692","properties":{"timestamp":"2015-05-15T21:11:15Z","version":"5","changeset":"31187881","user":"mathieuS","uid":"40504","addr:city":"Lausanne","addr:country":"CH","addr:housenumber":"11","addr:postcode":"1003","addr:street":"Rue Adrien-Pichard","building":"yes","source":"Orthophoto Ville de Lausanne 2008","id":"way/53004692"},"geometry":{"type":"Polygon","coordinates":[[[6.6309031,46.5215917],[6.6309003,46.5213507],[6.6310802,46.5213415],[6.631083,46.5213906],[6.6310661,46.5214139],[6.631077,46.521418],[6.6309246,46.5215997],[6.6309031,46.5215917]]]}},{"type":"Feature","id":"way/53004731","properties":{"timestamp":"2018-11-13T11:03:07Z","version":"7","changeset":"64437969","user":"mathieuS","uid":"40504","building":"yes","id":"way/53004731"},"geometry":{"type":"Polygon","coordinates":[[[6.6318884,46.5212461],[6.6319159,46.5211179],[6.6319159,46.5210896],[6.6320096,46.5211111],[6.6320145,46.5211025],[6.6322052,46.5211441],[6.6321898,46.5211767],[6.6321597,46.5212402],[6.6320291,46.5212394],[6.631968,46.5212423],[6.6318884,46.5212461]]]}},{"type":"Feature","id":"way/53011024","properties":{"timestamp":"2015-05-14T12:56:20Z","version":"2","changeset":"31139909","user":"mathieuS","uid":"40504","addr:housenumber":"2","addr:postcode":"1003","addr:street":"Rue du Pont","building":"yes","source":"Lausanne - Orthophoto technique 2012","id":"way/53011024"},"geometry":{"type":"Polygon","coordinates":[[[6.6332242,46.5216215],[6.6328997,46.5215483],[6.6329042,46.5215298],[6.6330156,46.5215442],[6.6330245,46.5215006],[6.6332052,46.5215337],[6.6331955,46.5215916],[6.6332299,46.5215968],[6.6332242,46.5216215]]]}},{"type":"Feature","id":"way/53011032","properties":{"timestamp":"2015-05-14T12:56:19Z","version":"2","changeset":"31139909","user":"mathieuS","uid":"40504","addr:housenumber":"12","addr:postcode":"1003","addr:street":"Rue du Pont","building":"yes","source":"Lausanne - Orthophoto technique 2012","id":"way/53011032"},"geometry":{"type":"Polygon","coordinates":[[[6.6330066,46.5212936],[6.6332576,46.5213428],[6.633268,46.5213437],[6.633255,46.5213984],[6.6329788,46.5213481],[6.6330066,46.5212936]]]}},{"type":"Feature","id":"way/53011046","properties":{"timestamp":"2015-05-14T12:56:19Z","version":"2","changeset":"31139909","user":"mathieuS","uid":"40504","addr:housenumber":"1a","addr:postcode":"1003","addr:street":"Rue du Petit-Saint-Jean","building":"yes","source":"Lausanne - Orthophoto technique 2012","id":"way/53011046"},"geometry":{"type":"Polygon","coordinates":[[[6.6326614,46.5215409],[6.6326451,46.5215557],[6.6325184,46.5215245],[6.6325585,46.521473],[6.6326517,46.5214882],[6.6326828,46.5214911],[6.632831,46.5215169],[6.6328095,46.5215433],[6.6327813,46.5215817],[6.6326614,46.5215409]]]}},{"type":"Feature","id":"way/53011053","properties":{"timestamp":"2015-05-14T12:56:19Z","version":"2","changeset":"31139909","user":"mathieuS","uid":"40504","addr:housenumber":"1","addr:postcode":"1003","addr:street":"Rue du Petit-Saint-Jean","building":"yes","source":"Lausanne - Orthophoto technique 2012","id":"way/53011053"},"geometry":{"type":"Polygon","coordinates":[[[6.6328997,46.5215483],[6.632831,46.5215169],[6.6326828,46.5214911],[6.6326517,46.5214882],[6.6326919,46.5214119],[6.6330245,46.5215006],[6.6330156,46.5215442],[6.6329042,46.5215298],[6.6328997,46.5215483]]]}},{"type":"Feature","id":"way/53011054","properties":{"timestamp":"2015-05-14T12:56:20Z","version":"2","changeset":"31139909","user":"mathieuS","uid":"40504","addr:housenumber":"3","addr:postcode":"1003","addr:street":"Rue du Petit-Saint-Jean","building":"yes","source":"Lausanne - Orthophoto technique 2012","id":"way/53011054"},"geometry":{"type":"Polygon","coordinates":[[[6.633046,46.5213956],[6.6330245,46.5215006],[6.6326919,46.5214119],[6.63277,46.5212636],[6.6328784,46.5213133],[6.6329072,46.5213265],[6.6328881,46.5213628],[6.6329633,46.5213784],[6.633046,46.5213956]]]}},{"type":"Feature","id":"way/53011062","properties":{"timestamp":"2015-05-14T12:56:20Z","version":"2","changeset":"31139909","user":"mathieuS","uid":"40504","addr:housenumber":"20","addr:postcode":"1003","addr:street":"Rue du Pont","building":"yes","source":"Lausanne - Orthophoto technique 2012","id":"way/53011062"},"geometry":{"type":"Polygon","coordinates":[[[6.6331416,46.5211613],[6.6333295,46.5211981],[6.6332714,46.5213149],[6.6330222,46.5212647],[6.6330066,46.5212936],[6.6329714,46.521285],[6.6329333,46.5213379],[6.6329072,46.5213265],[6.6328784,46.5213133],[6.6329906,46.5211882],[6.633038,46.5211806],[6.6331416,46.5211613]]]}},{"type":"Feature","id":"way/53011064","properties":{"timestamp":"2015-05-14T12:56:21Z","version":"2","changeset":"31139909","user":"mathieuS","uid":"40504","addr:housenumber":"4","addr:postcode":"1003","addr:street":"Rue du Pont","building":"yes","source":"Lausanne - Orthophoto technique 2012","id":"way/53011064"},"geometry":{"type":"Polygon","coordinates":[[[6.6332052,46.5215337],[6.6330245,46.5215006],[6.633046,46.5213956],[6.6332216,46.5214356],[6.6332052,46.5215337]]]}},{"type":"Feature","id":"way/53011067","properties":{"timestamp":"2015-05-14T12:56:19Z","version":"2","changeset":"31139909","user":"mathieuS","uid":"40504","addr:housenumber":"14","addr:postcode":"1003","addr:street":"Rue du Pont","building":"yes","source":"Lausanne - Orthophoto technique 2012","id":"way/53011067"},"geometry":{"type":"Polygon","coordinates":[[[6.6332714,46.5213149],[6.6332576,46.5213428],[6.6330066,46.5212936],[6.6330222,46.5212647],[6.6332714,46.5213149]]]}},{"type":"Feature","id":"way/53011077","properties":{"timestamp":"2015-05-14T13:07:42Z","version":"3","changeset":"31140399","user":"mathieuS","uid":"40504","addr:housenumber":"9","addr:postcode":"1003","addr:street":"Place de la Palud","building":"yes","source":"Lausanne - Orthophoto technique 2012","id":"way/53011077"},"geometry":{"type":"Polygon","coordinates":[[[6.6320807,46.5220239],[6.6321215,46.5219764],[6.6322887,46.5220746],[6.6323213,46.522097],[6.6324155,46.5221967],[6.6323684,46.5222256],[6.6322036,46.5221007],[6.6320807,46.5220239]]]}},{"type":"Feature","id":"way/53011093","properties":{"timestamp":"2016-04-12T19:34:41Z","version":"4","changeset":"38508740","user":"floyd70","uid":"3068030","addr:city":"Lausanne","addr:housenumber":"5","addr:postcode":"1003","addr:street":"Place de la Palud","building":"yes","source":"Lausanne - Orthophoto technique 2012","id":"way/53011093"},"geometry":{"type":"Polygon","coordinates":[[[6.6324706,46.5218218],[6.6325762,46.5218799],[6.6327297,46.5219912],[6.6325702,46.5220833],[6.632546,46.5220972],[6.6323861,46.5219291],[6.6323504,46.5219084],[6.6324706,46.5218218]]]}},{"type":"Feature","id":"way/53011100","properties":{"timestamp":"2015-05-14T13:07:42Z","version":"2","changeset":"31140399","user":"mathieuS","uid":"40504","addr:housenumber":"7","addr:postcode":"1003","addr:street":"Rue de la Louve","building":"yes","source":"Lausanne - Orthophoto technique 2012","id":"way/53011100"},"geometry":{"type":"Polygon","coordinates":[[[6.6320914,46.5219613],[6.6319804,46.5219028],[6.6320078,46.5218596],[6.6321333,46.5219146],[6.6320914,46.5219613]]]}},{"type":"Feature","id":"way/53011105","properties":{"timestamp":"2015-05-14T13:07:42Z","version":"2","changeset":"31140399","user":"mathieuS","uid":"40504","addr:housenumber":"9","addr:postcode":"1003","addr:street":"Rue de la Louve","building":"yes","source":"Lausanne - Orthophoto technique 2012","id":"way/53011105"},"geometry":{"type":"Polygon","coordinates":[[[6.6321333,46.5219146],[6.6320078,46.5218596],[6.6320357,46.5218156],[6.6322158,46.5218912],[6.6321869,46.5219152],[6.6321485,46.5218968],[6.6321333,46.5219146]]]}},{"type":"Feature","id":"way/53011108","properties":{"timestamp":"2015-05-14T13:07:42Z","version":"2","changeset":"31140399","user":"mathieuS","uid":"40504","addr:housenumber":"3","addr:postcode":"1003","addr:street":"Rue de la Louve","building":"yes","source":"Lausanne - Orthophoto technique 2012","id":"way/53011108"},"geometry":{"type":"Polygon","coordinates":[[[6.6319852,46.5220663],[6.6319198,46.5220371],[6.6319014,46.5220259],[6.6319466,46.5219561],[6.6320497,46.5220083],[6.6319852,46.5220663]]]}},{"type":"Feature","id":"way/53011109","properties":{"timestamp":"2015-05-14T13:07:42Z","version":"2","changeset":"31140399","user":"mathieuS","uid":"40504","addr:housenumber":"5","addr:postcode":"1003","addr:street":"Rue de la Louve","building":"yes","source":"Lausanne - Orthophoto technique 2012","id":"way/53011109"},"geometry":{"type":"Polygon","coordinates":[[[6.6320497,46.5220083],[6.6319466,46.5219561],[6.6319804,46.5219028],[6.6320914,46.5219613],[6.6321215,46.5219764],[6.6320807,46.5220239],[6.6320497,46.5220083]]]}},{"type":"Feature","id":"way/53011112","properties":{"timestamp":"2015-05-14T13:07:41Z","version":"2","changeset":"31140399","user":"mathieuS","uid":"40504","addr:housenumber":"1","addr:postcode":"1003","addr:street":"Rue de la Louve","building":"yes","source":"Lausanne - Orthophoto technique 2012","id":"way/53011112"},"geometry":{"type":"Polygon","coordinates":[[[6.6319198,46.5220371],[6.6319852,46.5220663],[6.6319926,46.5220727],[6.631977,46.5220834],[6.631998,46.5220979],[6.6320136,46.5220871],[6.6320809,46.5221231],[6.6320417,46.5221469],[6.6320795,46.5221766],[6.6321016,46.5221635],[6.6321287,46.5221935],[6.6322147,46.5223087],[6.6321049,46.5223417],[6.631938,46.522206],[6.6319075,46.5221706],[6.6318962,46.5221118],[6.6318995,46.5220804],[6.6319198,46.5220371]]]}},{"type":"Feature","id":"way/53011125","properties":{"timestamp":"2015-05-14T13:07:41Z","version":"2","changeset":"31140399","user":"mathieuS","uid":"40504","addr:housenumber":"3","addr:postcode":"1003","addr:street":"Place de la Louve","building":"yes","source":"Lausanne - Orthophoto technique 2012","id":"way/53011125"},"geometry":{"type":"Polygon","coordinates":[[[6.6324706,46.5218218],[6.6323504,46.5219084],[6.6322868,46.5218718],[6.6323051,46.521858],[6.6323286,46.5218664],[6.6324096,46.5217767],[6.6324619,46.5218067],[6.6324495,46.5218134],[6.6324706,46.5218218]]]}},{"type":"Feature","id":"way/53011129","properties":{"timestamp":"2015-05-14T13:07:42Z","version":"2","changeset":"31140399","user":"mathieuS","uid":"40504","addr:housenumber":"7","addr:postcode":"1003","addr:street":"Place de la Palud","building":"yes","source":"Lausanne - Orthophoto technique 2012","id":"way/53011129"},"geometry":{"type":"Polygon","coordinates":[[[6.6321869,46.5219152],[6.6322158,46.5218912],[6.6322449,46.5218624],[6.6322762,46.5218784],[6.6322868,46.5218718],[6.6323504,46.5219084],[6.6323861,46.5219291],[6.632546,46.5220972],[6.632455,46.5221676],[6.6323801,46.5220769],[6.6324267,46.5220653],[6.6323805,46.5220234],[6.6323455,46.5220351],[6.6323099,46.5219921],[6.6321869,46.5219152]]]}},{"type":"Feature","id":"way/53011137","properties":{"timestamp":"2016-04-12T19:35:35Z","version":"3","changeset":"38508771","user":"floyd70","uid":"3068030","building":"yes","source":"Lausanne - Orthophoto technique 2012","id":"way/53011137"},"geometry":{"type":"Polygon","coordinates":[[[6.6330006,46.5216736],[6.6330381,46.5216207],[6.6330015,46.5216103],[6.6329818,46.5216453],[6.6329276,46.5216284],[6.6328149,46.5215931],[6.6328372,46.5215507],[6.6328095,46.5215433],[6.632831,46.5215169],[6.6328997,46.5215483],[6.6332242,46.5216215],[6.6330925,46.5217173],[6.6330006,46.5216736]]]}},{"type":"Feature","id":"way/53013846","properties":{"timestamp":"2015-05-14T12:56:18Z","version":"2","changeset":"31139909","user":"mathieuS","uid":"40504","addr:housenumber":"1","addr:postcode":"1003","addr:street":"Place Pépinet","building":"yes","source":"Lausanne - Orthophoto technique 2012","id":"way/53013846"},"geometry":{"type":"Polygon","coordinates":[[[6.6321936,46.5215004],[6.6323193,46.5212355],[6.6324492,46.5212625],[6.6324466,46.5212691],[6.6324841,46.5212739],[6.6324858,46.5212589],[6.6326131,46.5212469],[6.6325628,46.5213717],[6.6325741,46.5213735],[6.6325051,46.521522],[6.6324826,46.5215703],[6.6323292,46.5215409],[6.6323335,46.5215265],[6.6321936,46.5215004]]]}},{"type":"Feature","id":"way/53013851","properties":{"timestamp":"2015-05-14T12:56:23Z","version":"2","changeset":"31139909","user":"mathieuS","uid":"40504","building":"yes","source":"Lausanne - Orthophoto technique 2012","id":"way/53013851"},"geometry":{"type":"Polygon","coordinates":[[[6.632774,46.5210387],[6.6328849,46.521084],[6.6327988,46.521137],[6.6327172,46.5211873],[6.6326889,46.5211955],[6.6326595,46.5211888],[6.632642,46.5211708],[6.6326453,46.5210957],[6.6326491,46.5210108],[6.6327042,46.5210102],[6.632774,46.5210387]]]}},{"type":"Feature","id":"way/53013854","properties":{"timestamp":"2019-11-11T15:06:07Z","version":"12","changeset":"76917034","user":"stedewa","uid":"9733","building":"university","building:levels":"5","name":"Palais de Rumine","name:ko":"뤼민궁","opening_hours":"Mo-Fr 07:00-22:00; Sa 07:00-17:00; Su 10:00-17:00; PH 10:00-17:00","roof:levels":"1","roof:shape":"half-hipped","source":"Lausanne - Orthophoto technique 2012","tourism":"museum","url":"http://www.lanuitdesmusees.ch/2008/le-projet-acc%C3%A8s-cible-de-la-ndm","wheelchair":"yes","wikidata":"Q661033","wikipedia":"fr:Palais de Rumine","id":"way/53013854"},"geometry":{"type":"Polygon","coordinates":[[[6.6337785,46.5229053],[6.6338358,46.5229951],[6.6338172,46.5230007],[6.6340485,46.5233634],[6.6340903,46.523429],[6.6343831,46.5238882],[6.6343966,46.5238841],[6.6344711,46.5240009],[6.6344176,46.5240171],[6.6340203,46.524137],[6.6339754,46.5241505],[6.6339015,46.5240346],[6.6339273,46.5240269],[6.6337643,46.5237713],[6.6337437,46.5237389],[6.6337246,46.5237446],[6.6337035,46.5237115],[6.6335384,46.5237614],[6.6335253,46.5237408],[6.6334746,46.5236613],[6.6334627,46.5236425],[6.633452,46.5236257],[6.6333969,46.5235394],[6.6333828,46.5235172],[6.6335454,46.5234681],[6.6335017,46.5233995],[6.6335202,46.5233939],[6.6333554,46.5231354],[6.633333,46.5231422],[6.6332783,46.5230563],[6.6335089,46.5229867],[6.633582,46.5229646],[6.6337785,46.5229053]]]}},{"type":"Feature","id":"way/53013861","properties":{"timestamp":"2015-05-13T21:38:14Z","version":"2","changeset":"31115828","user":"mathieuS","uid":"40504","addr:housenumber":"3","addr:postcode":"1003","addr:street":"Rue Madeleine","building":"yes","source":"Lausanne - Orthophoto technique 2012","id":"way/53013861"},"geometry":{"type":"Polygon","coordinates":[[[6.632803,46.5222575],[6.6329619,46.5222491],[6.6329646,46.5223598],[6.6327634,46.5223685],[6.632766,46.522334],[6.6328227,46.5223022],[6.632803,46.5222575]]]}},{"type":"Feature","id":"way/53013867","properties":{"timestamp":"2016-04-12T19:32:05Z","version":"3","changeset":"38508676","user":"floyd70","uid":"3068030","addr:city":"Lausanne","addr:housenumber":"17;18","addr:postcode":"1003","addr:street":"Place de la Palud","building":"yes","source":"Lausanne - Orthophoto technique 2012","id":"way/53013867"},"geometry":{"type":"Polygon","coordinates":[[[6.6325473,46.52219],[6.6327263,46.5221259],[6.632803,46.5222575],[6.6326579,46.5223064],[6.6325473,46.52219]]]}},{"type":"Feature","id":"way/53013870","properties":{"timestamp":"2016-04-12T19:32:04Z","version":"3","changeset":"38508676","user":"floyd70","uid":"3068030","addr:city":"Lausanne","addr:housenumber":"16","addr:postcode":"1003","addr:street":"Place de la Palud","building":"yes","source":"Lausanne - Orthophoto technique 2012","id":"way/53013870"},"geometry":{"type":"Polygon","coordinates":[[[6.6326579,46.5223064],[6.6326822,46.5223265],[6.6326229,46.5223673],[6.6325561,46.5223268],[6.6324772,46.5222332],[6.632462,46.5222184],[6.6325473,46.52219],[6.6326579,46.5223064]]]}},{"type":"Feature","id":"way/53013871","properties":{"timestamp":"2015-05-13T21:38:13Z","version":"2","changeset":"31115828","user":"mathieuS","uid":"40504","addr:housenumber":"1","addr:postcode":"1003","addr:street":"Rue Madeleine","building":"yes","source":"Lausanne - Orthophoto technique 2012","id":"way/53013871"},"geometry":{"type":"Polygon","coordinates":[[[6.6329619,46.5222491],[6.632803,46.5222575],[6.6327263,46.5221259],[6.6329447,46.5220637],[6.6329631,46.5220727],[6.6329619,46.5222491]]]}},{"type":"Feature","id":"way/53013878","properties":{"timestamp":"2018-07-29T12:55:18Z","version":"9","changeset":"61164121","user":"ttln","uid":"3371382","addr:city":"Lausanne","addr:housenumber":"2bis","addr:postcode":"1005","addr:street":"Place de la Riponne","building":"yes","building:levels":"3","name":"Espace Arlaud","opening_hours":"We-Fr 12:00-18:00, Sa,Su 11:00-17:00","source":"Lausanne - Orthophoto technique 2012","toilets:wheelchair":"no","tourism":"museum","wheelchair":"limited","id":"way/53013878"},"geometry":{"type":"Polygon","coordinates":[[[6.6319597,46.5227537],[6.6322912,46.5226444],[6.6323738,46.5227635],[6.6320421,46.5228725],[6.6319597,46.5227537]]]}},{"type":"Feature","id":"way/53013879","properties":{"timestamp":"2015-05-13T21:38:13Z","version":"3","changeset":"31115828","user":"mathieuS","uid":"40504","addr:housenumber":"13","addr:postcode":"1003","addr:street":"Place de la Palud","building":"yes","source":"Lausanne - Orthophoto technique 2012","id":"way/53013879"},"geometry":{"type":"Polygon","coordinates":[[[6.6323556,46.5224567],[6.6323774,46.5224411],[6.632462,46.5224971],[6.6323363,46.5225869],[6.6323111,46.5225702],[6.632289,46.5225556],[6.6322492,46.5225316],[6.632191,46.5224765],[6.6321136,46.5224149],[6.6322467,46.5223484],[6.632338,46.52244],[6.6323556,46.5224567]]]}},{"type":"Feature","id":"way/53013886","properties":{"timestamp":"2016-04-12T19:32:04Z","version":"3","changeset":"38508676","user":"floyd70","uid":"3068030","addr:city":"Lausanne","addr:housenumber":"14","addr:postcode":"1003","addr:street":"Place de la Palud","building":"yes","source":"Lausanne - Orthophoto technique 2012","id":"way/53013886"},"geometry":{"type":"Polygon","coordinates":[[[6.632338,46.52244],[6.6322467,46.5223484],[6.6324772,46.5222332],[6.6325561,46.5223268],[6.632338,46.52244]]]}},{"type":"Feature","id":"way/53013890","properties":{"timestamp":"2015-05-13T21:38:14Z","version":"3","changeset":"31115828","user":"mathieuS","uid":"40504","addr:housenumber":"5","addr:postcode":"1003","addr:street":"Rue Madeleine","building":"yes","source":"Lausanne - Orthophoto technique 2012","id":"way/53013890"},"geometry":{"type":"Polygon","coordinates":[[[6.6327634,46.5223685],[6.6329646,46.5223598],[6.632954,46.5224727],[6.6327635,46.5224798],[6.6327634,46.5223685]]]}},{"type":"Feature","id":"way/53020084","properties":{"timestamp":"2015-05-14T11:55:39Z","version":"2","changeset":"31137410","user":"mathieuS","uid":"40504","addr:housenumber":"19","addr:postcode":"1003","addr:street":"Escaliers du Marché","building":"yes","source":"Lausanne - Orthophoto technique 2012","id":"way/53020084"},"geometry":{"type":"Polygon","coordinates":[[[6.633917,46.5223017],[6.6337976,46.5224413],[6.633764,46.5224316],[6.6337805,46.522411],[6.6337614,46.5223951],[6.6338724,46.5222715],[6.633917,46.5223017]]]}},{"type":"Feature","id":"way/53020090","properties":{"timestamp":"2015-05-14T11:03:08Z","version":"2","changeset":"31135570","user":"mathieuS","uid":"40504","addr:housenumber":"11","addr:postcode":"1003","addr:street":"Escaliers du Marché","building":"yes","source":"Lausanne - Orthophoto technique 2012","id":"way/53020090"},"geometry":{"type":"Polygon","coordinates":[[[6.6337236,46.5221739],[6.6335379,46.5223504],[6.6334753,46.5223251],[6.6335352,46.5222813],[6.6336735,46.5221512],[6.6337236,46.5221739]]]}},{"type":"Feature","id":"way/53020093","properties":{"timestamp":"2015-05-14T10:33:43Z","version":"2","changeset":"31134581","user":"mathieuS","uid":"40504","addr:housenumber":"5","addr:postcode":"1003","addr:street":"Escaliers du Marché","building":"yes","source":"Lausanne - Orthophoto technique 2012","id":"way/53020093"},"geometry":{"type":"Polygon","coordinates":[[[6.6336946,46.5219893],[6.6337188,46.5220159],[6.6337169,46.5220463],[6.6336655,46.5220487],[6.6335341,46.5221075],[6.6334989,46.5220666],[6.6335146,46.522059],[6.6334736,46.5220198],[6.6334646,46.5220119],[6.6334789,46.5220055],[6.6336256,46.5219339],[6.6336946,46.5219893]]]}},{"type":"Feature","id":"way/53020094","properties":{"timestamp":"2015-05-14T10:53:59Z","version":"2","changeset":"31135247","user":"mathieuS","uid":"40504","addr:housenumber":"19","addr:postcode":"1003","addr:street":"Place de la Palud","building":"yes","source":"Lausanne - Orthophoto technique 2012","id":"way/53020094"},"geometry":{"type":"Polygon","coordinates":[[[6.6330778,46.5219337],[6.6333845,46.5221659],[6.6333561,46.522189],[6.6332629,46.5221318],[6.6332313,46.5221123],[6.6331284,46.5220518],[6.6330186,46.5219678],[6.6330778,46.5219337]]]}},{"type":"Feature","id":"way/53020098","properties":{"timestamp":"2015-05-14T10:33:43Z","version":"2","changeset":"31134581","user":"mathieuS","uid":"40504","addr:housenumber":"3","addr:postcode":"1003","addr:street":"Escaliers du Marché","building":"yes","source":"Lausanne - Orthophoto technique 2012","id":"way/53020098"},"geometry":{"type":"Polygon","coordinates":[[[6.6334671,46.5219878],[6.6335531,46.5218966],[6.6336256,46.5219339],[6.6334789,46.5220055],[6.6334656,46.5219973],[6.6334671,46.5219878]]]}},{"type":"Feature","id":"way/53020099","properties":{"timestamp":"2015-05-14T10:33:43Z","version":"2","changeset":"31134581","user":"mathieuS","uid":"40504","addr:housenumber":"22","addr:postcode":"1003","addr:street":"Place de la Palud","building":"yes","source":"Lausanne - Orthophoto technique 2012","id":"way/53020099"},"geometry":{"type":"Polygon","coordinates":[[[6.6334419,46.5218694],[6.6334671,46.5219878],[6.6334656,46.5219973],[6.633429,46.522014],[6.6333803,46.5219696],[6.6333634,46.521977],[6.6333532,46.5219603],[6.6332897,46.5218697],[6.6334066,46.5218734],[6.6334419,46.5218694]]]}},{"type":"Feature","id":"way/53020100","properties":{"timestamp":"2015-05-14T10:54:00Z","version":"3","changeset":"31135247","user":"mathieuS","uid":"40504","addr:housenumber":"21","addr:postcode":"1003","addr:street":"Place de la Palud","building":"yes","source":"Lausanne - Orthophoto technique 2012","id":"way/53020100"},"geometry":{"type":"Polygon","coordinates":[[[6.6332897,46.5218697],[6.6333532,46.5219603],[6.6333193,46.5219757],[6.6333961,46.5220582],[6.6334736,46.5220198],[6.6335146,46.522059],[6.6334989,46.5220666],[6.6334498,46.5220904],[6.6334948,46.5221304],[6.6335208,46.5221476],[6.6334632,46.522182],[6.6334125,46.5221438],[6.6331498,46.5218975],[6.6332897,46.5218697]]]}},{"type":"Feature","id":"way/53020101","properties":{"timestamp":"2015-05-14T10:54:00Z","version":"2","changeset":"31135247","user":"mathieuS","uid":"40504","addr:housenumber":"20","addr:postcode":"1003","addr:street":"Place de la Palud","building":"yes","source":"Lausanne - Orthophoto technique 2012","id":"way/53020101"},"geometry":{"type":"Polygon","coordinates":[[[6.6331498,46.5218975],[6.6334125,46.5221438],[6.6333845,46.5221659],[6.6330778,46.5219337],[6.6331498,46.5218975]]]}},{"type":"Feature","id":"way/53020104","properties":{"timestamp":"2015-05-14T10:55:50Z","version":"3","changeset":"31135329","user":"mathieuS","uid":"40504","addr:housenumber":"4","addr:postcode":"1003","addr:street":"Rue Madeleine","building":"yes","source":"Lausanne - Orthophoto technique 2012","id":"way/53020104"},"geometry":{"type":"Polygon","coordinates":[[[6.6330308,46.5220589],[6.6330579,46.5220878],[6.6331464,46.522131],[6.6332395,46.5221914],[6.6332048,46.5222352],[6.6332396,46.5222467],[6.6332106,46.522298],[6.63304,46.5222618],[6.6330308,46.5220589]]]}},{"type":"Feature","id":"way/53020109","properties":{"timestamp":"2015-05-14T11:03:08Z","version":"3","changeset":"31135570","user":"mathieuS","uid":"40504","addr:housenumber":"9","addr:postcode":"1003","addr:street":"Escaliers du Marché","building":"yes","source":"Lausanne - Orthophoto technique 2012","id":"way/53020109"},"geometry":{"type":"Polygon","coordinates":[[[6.6335195,46.5222705],[6.6334691,46.5223073],[6.6334093,46.5222752],[6.6333983,46.5222873],[6.6332939,46.5222557],[6.6333123,46.522235],[6.6333207,46.5222241],[6.6333373,46.5222298],[6.6333889,46.522244],[6.6334269,46.5222053],[6.6334543,46.5222204],[6.6335508,46.5221427],[6.633694,46.5220884],[6.6337175,46.522128],[6.6336735,46.5221512],[6.6335352,46.5222813],[6.6335195,46.5222705]]]}},{"type":"Feature","id":"way/53020119","properties":{"timestamp":"2015-05-14T10:53:59Z","version":"2","changeset":"31135247","user":"mathieuS","uid":"40504","addr:housenumber":"2","addr:postcode":"1003","addr:street":"Rue Madeleine","building":"yes","source":"Lausanne - Orthophoto technique 2012","id":"way/53020119"},"geometry":{"type":"Polygon","coordinates":[[[6.6330186,46.5219678],[6.6331284,46.5220518],[6.6332313,46.5221123],[6.6332038,46.522134],[6.63324,46.5221522],[6.6332629,46.5221318],[6.6333561,46.522189],[6.6333726,46.5221963],[6.6333373,46.5222298],[6.6333207,46.5222241],[6.6333123,46.522235],[6.6332395,46.5221914],[6.6331464,46.522131],[6.6330579,46.5220878],[6.6330308,46.5220589],[6.6330074,46.5220287],[6.6330186,46.5219678]]]}},{"type":"Feature","id":"way/53020121","properties":{"timestamp":"2015-05-14T10:55:50Z","version":"3","changeset":"31135329","user":"mathieuS","uid":"40504","addr:housenumber":"6","addr:postcode":"1003","addr:street":"Rue Madeleine","building":"yes","source":"Lausanne - Orthophoto technique 2012","id":"way/53020121"},"geometry":{"type":"Polygon","coordinates":[[[6.63304,46.5222618],[6.6332106,46.522298],[6.6333929,46.5223484],[6.6333681,46.5223925],[6.6330435,46.5223201],[6.63304,46.5222618]]]}},{"type":"Feature","id":"way/53020128","properties":{"timestamp":"2015-05-14T11:03:08Z","version":"2","changeset":"31135570","user":"mathieuS","uid":"40504","addr:housenumber":"8","addr:postcode":"1003","addr:street":"Rue Madeleine","building":"yes","source":"Lausanne - Orthophoto technique 2012","id":"way/53020128"},"geometry":{"type":"Polygon","coordinates":[[[6.6333681,46.5223925],[6.6333468,46.522438],[6.6330484,46.522369],[6.6330435,46.5223201],[6.6333681,46.5223925]]]}},{"type":"Feature","id":"way/53020149","properties":{"timestamp":"2015-05-14T11:55:39Z","version":"2","changeset":"31137410","user":"mathieuS","uid":"40504","addr:housenumber":"17","addr:postcode":"1003","addr:street":"Escaliers du Marché","building":"yes","source":"Lausanne - Orthophoto technique 2012","id":"way/53020149"},"geometry":{"type":"Polygon","coordinates":[[[6.6338724,46.5222715],[6.6337614,46.5223951],[6.6337474,46.5224115],[6.6337128,46.5223937],[6.6337292,46.5223763],[6.6336859,46.5223553],[6.6338149,46.5222312],[6.6338724,46.5222715]]]}},{"type":"Feature","id":"way/53020150","properties":{"timestamp":"2015-05-14T11:03:08Z","version":"2","changeset":"31135570","user":"mathieuS","uid":"40504","addr:housenumber":"15","addr:postcode":"1003","addr:street":"Escaliers du Marché","building":"yes","source":"Lausanne - Orthophoto technique 2012","id":"way/53020150"},"geometry":{"type":"Polygon","coordinates":[[[6.6338149,46.5222312],[6.6336859,46.5223553],[6.6336503,46.52239],[6.6335879,46.5223652],[6.6337624,46.5221955],[6.6338149,46.5222312]]]}},{"type":"Feature","id":"way/53020151","properties":{"timestamp":"2015-05-14T11:03:08Z","version":"2","changeset":"31135570","user":"mathieuS","uid":"40504","addr:housenumber":"13","addr:postcode":"1003","addr:street":"Escaliers du Marché","building":"yes","source":"Lausanne - Orthophoto technique 2012","id":"way/53020151"},"geometry":{"type":"Polygon","coordinates":[[[6.6337624,46.5221955],[6.6335879,46.5223652],[6.6335379,46.5223504],[6.6337236,46.5221739],[6.6337624,46.5221955]]]}},{"type":"Feature","id":"way/53020152","properties":{"timestamp":"2015-05-14T11:58:42Z","version":"3","changeset":"31137532","user":"mathieuS","uid":"40504","addr:housenumber":"7","addr:postcode":"1003","addr:street":"Rue Pierre-Viret","building":"yes","source":"Lausanne - Orthophoto technique 2012","id":"way/53020152"},"geometry":{"type":"Polygon","coordinates":[[[6.6337908,46.5225712],[6.633755,46.5226166],[6.6336937,46.5226017],[6.6337495,46.5225407],[6.6338019,46.5225569],[6.6337908,46.5225712]]]}},{"type":"Feature","id":"way/53020162","properties":{"timestamp":"2015-05-14T11:03:08Z","version":"2","changeset":"31135570","user":"mathieuS","uid":"40504","addr:housenumber":"10","addr:postcode":"1003","addr:street":"Rue Madeleine","building":"yes","source":"Lausanne - Orthophoto technique 2012","id":"way/53020162"},"geometry":{"type":"Polygon","coordinates":[[[6.6333468,46.522438],[6.6332965,46.5225318],[6.6332481,46.5225229],[6.6330504,46.5224984],[6.6330484,46.522369],[6.6333468,46.522438]]]}},{"type":"Feature","id":"way/53020169","properties":{"timestamp":"2015-05-14T10:53:59Z","version":"3","changeset":"31135247","user":"mathieuS","uid":"40504","addr:housenumber":"12","addr:postcode":"1003","addr:street":"Rue Madeleine","building":"yes","source":"Lausanne - Orthophoto technique 2012","id":"way/53020169"},"geometry":{"type":"Polygon","coordinates":[[[6.6330504,46.5224984],[6.6332481,46.5225229],[6.6332473,46.5225512],[6.6331925,46.5225531],[6.6331676,46.5225725],[6.6330481,46.5225589],[6.6330504,46.5224984]]]}},{"type":"Feature","id":"way/53020184","properties":{"timestamp":"2015-05-14T11:55:40Z","version":"2","changeset":"31137410","user":"mathieuS","uid":"40504","addr:housenumber":"5","addr:postcode":"1003","addr:street":"Rue Pierre-Viret","building":"yes","source":"Lausanne - Orthophoto technique 2012","id":"way/53020184"},"geometry":{"type":"Polygon","coordinates":[[[6.6339346,46.5224939],[6.6339481,46.5224789],[6.6339902,46.5224997],[6.6339723,46.5225177],[6.6339285,46.5225021],[6.6339346,46.5224939]]]}},{"type":"Feature","id":"way/53020185","properties":{"timestamp":"2015-05-14T11:55:40Z","version":"2","changeset":"31137410","user":"mathieuS","uid":"40504","addr:housenumber":"27","addr:postcode":"1003","addr:street":"Escaliers du Marché","building":"yes","source":"Lausanne - Orthophoto technique 2012","id":"way/53020185"},"geometry":{"type":"Polygon","coordinates":[[[6.6339902,46.5224997],[6.6339481,46.5224789],[6.6340389,46.5223743],[6.6341338,46.5224181],[6.6340177,46.5225102],[6.6339902,46.5224997]]]}},{"type":"Feature","id":"way/53020187","properties":{"timestamp":"2015-05-14T11:55:39Z","version":"2","changeset":"31137410","user":"mathieuS","uid":"40504","addr:housenumber":"25","addr:postcode":"1003","addr:street":"Escaliers du Marché","building":"yes","source":"Lausanne - Orthophoto technique 2012","id":"way/53020187"},"geometry":{"type":"Polygon","coordinates":[[[6.6340389,46.5223743],[6.6339481,46.5224789],[6.6339346,46.5224939],[6.6338826,46.5224675],[6.633995,46.5223466],[6.6340389,46.5223743]]]}},{"type":"Feature","id":"way/53020189","properties":{"timestamp":"2015-05-14T11:55:39Z","version":"2","changeset":"31137410","user":"mathieuS","uid":"40504","addr:housenumber":"21","addr:postcode":"1003","addr:street":"Escaliers du Marché","building":"yes","source":"Lausanne - Orthophoto technique 2012","id":"way/53020189"},"geometry":{"type":"Polygon","coordinates":[[[6.6339413,46.522312],[6.633839,46.5224454],[6.6338324,46.5224547],[6.6337976,46.5224413],[6.633917,46.5223017],[6.6339413,46.522312]]]}},{"type":"Feature","id":"way/53042797","properties":{"timestamp":"2018-10-25T10:13:25Z","version":"6","changeset":"63862009","user":"-WI-","uid":"102162","addr:city":"Lausanne","addr:country":"CH","addr:housenumber":"24","addr:postcode":"1003","addr:street":"Rue Mercerie","building":"yes","name":"Hôpital de la Mercerie","source":"Lausanne - Orthophoto technique 2012","wikidata":"Q2845792","id":"way/53042797"},"geometry":{"type":"Polygon","coordinates":[[[6.6357738,46.5213652],[6.6356923,46.521637],[6.6355671,46.5216193],[6.6355988,46.5215137],[6.6353835,46.5214831],[6.6353519,46.5215887],[6.6352205,46.52157],[6.635302,46.5212982],[6.6357738,46.5213652]]]}},{"type":"Feature","id":"way/53042800","properties":{"timestamp":"2015-05-14T12:30:44Z","version":"2","changeset":"31138848","user":"mathieuS","uid":"40504","addr:housenumber":"14","addr:postcode":"1003","addr:street":"Rue Mercerie","building":"yes","source":"Lausanne - Orthophoto technique 2012","id":"way/53042800"},"geometry":{"type":"Polygon","coordinates":[[[6.6342878,46.5216135],[6.6342015,46.5216413],[6.634171,46.5215564],[6.6341468,46.5214583],[6.6341678,46.5214576],[6.6342384,46.5214561],[6.6342428,46.5214993],[6.6342878,46.5216135]]]}},{"type":"Feature","id":"way/53042806","properties":{"timestamp":"2015-05-14T12:30:43Z","version":"3","changeset":"31138848","user":"mathieuS","uid":"40504","addr:housenumber":"1","addr:postcode":"1003","addr:street":"Rue du Pont","building":"yes","source":"Lausanne - Orthophoto technique 2012","id":"way/53042806"},"geometry":{"type":"Polygon","coordinates":[[[6.633318,46.5215187],[6.6335581,46.5215128],[6.6335911,46.5215123],[6.6335963,46.5215319],[6.6336635,46.5215234],[6.6336787,46.5215808],[6.6336138,46.521589],[6.633618,46.521605],[6.6336269,46.5216495],[6.6333696,46.5216935],[6.6333459,46.5216293],[6.633318,46.5215187]]]}},{"type":"Feature","id":"way/53042828","properties":{"timestamp":"2015-05-14T12:30:44Z","version":"2","changeset":"31138848","user":"mathieuS","uid":"40504","addr:housenumber":"3","addr:postcode":"1003","addr:street":"Rue du Pont","building":"yes","source":"Lausanne - Orthophoto technique 2012","id":"way/53042828"},"geometry":{"type":"Polygon","coordinates":[[[6.6335581,46.5215128],[6.633318,46.5215187],[6.6333372,46.5213986],[6.6335667,46.5214326],[6.6335581,46.5215128]]]}},{"type":"Feature","id":"way/53042834","properties":{"timestamp":"2015-05-14T12:15:58Z","version":"2","changeset":"31138197","user":"mathieuS","uid":"40504","addr:housenumber":"19","addr:postcode":"1003","addr:street":"Rue Centrale","building":"yes","id":"way/53042834"},"geometry":{"type":"Polygon","coordinates":[[[6.634328,46.5210546],[6.6345703,46.5210456],[6.6345765,46.5211463],[6.6344021,46.5211488],[6.6343368,46.5211498],[6.634328,46.5210546]]]}},{"type":"Feature","id":"way/53042837","properties":{"timestamp":"2015-05-14T12:15:58Z","version":"5","changeset":"31138197","user":"mathieuS","uid":"40504","addr:housenumber":"15","addr:postcode":"1003","addr:street":"Rue Centrale","building":"yes","source":"Lausanne - Orthophoto technique 2012","id":"way/53042837"},"geometry":{"type":"Polygon","coordinates":[[[6.6338051,46.521027],[6.6341601,46.5210521],[6.6341221,46.5211569],[6.6341178,46.5211774],[6.6340067,46.5211739],[6.6340109,46.5211473],[6.6337802,46.5211324],[6.6338051,46.521027]]]}},{"type":"Feature","id":"way/53042840","properties":{"timestamp":"2015-05-14T12:15:58Z","version":"2","changeset":"31138197","user":"mathieuS","uid":"40504","addr:housenumber":"17","addr:postcode":"1003","addr:street":"Rue Centrale","building":"yes","source":"Lausanne - Orthophoto technique 2012","id":"way/53042840"},"geometry":{"type":"Polygon","coordinates":[[[6.6341601,46.5210521],[6.634328,46.5210546],[6.6343368,46.5211498],[6.6341221,46.5211569],[6.6341601,46.5210521]]]}},{"type":"Feature","id":"way/53042866","properties":{"timestamp":"2015-05-14T12:30:45Z","version":"4","changeset":"31138848","user":"mathieuS","uid":"40504","building":"yes","source":"Lausanne - Orthophoto technique 2012","id":"way/53042866"},"geometry":{"type":"Polygon","coordinates":[[[6.633515,46.5210411],[6.6335407,46.5210278],[6.6335787,46.5210183],[6.6338051,46.521027],[6.6337802,46.5211324],[6.6337704,46.5211646],[6.6342633,46.5212537],[6.6342639,46.5212365],[6.6344253,46.5212398],[6.6344226,46.5213213],[6.6342374,46.5213195],[6.6342254,46.5213338],[6.634144,46.5213181],[6.6341411,46.5213312],[6.6341658,46.5213354],[6.6341678,46.5214576],[6.6341468,46.5214583],[6.6340474,46.5214389],[6.6340373,46.5214653],[6.6338063,46.5214414],[6.6337945,46.5214923],[6.6336555,46.5214794],[6.6336624,46.5214394],[6.6335667,46.5214326],[6.6333372,46.5213986],[6.6334536,46.521155],[6.633515,46.5210411]]]}},{"type":"Feature","id":"way/53042867","properties":{"timestamp":"2015-05-14T12:30:44Z","version":"2","changeset":"31138848","user":"mathieuS","uid":"40504","addr:housenumber":"16","addr:postcode":"1003","addr:street":"Rue Mercerie","building":"yes","source":"Lausanne - Orthophoto technique 2012","id":"way/53042867"},"geometry":{"type":"Polygon","coordinates":[[[6.634368,46.521394],[6.6343526,46.5214505],[6.6342384,46.5214561],[6.6342273,46.5213565],[6.6343759,46.5213628],[6.634368,46.521394]]]}},{"type":"Feature","id":"way/53042870","properties":{"timestamp":"2015-05-14T12:30:44Z","version":"2","changeset":"31138848","user":"mathieuS","uid":"40504","addr:housenumber":"20","addr:postcode":"1003","addr:street":"Rue Mercerie","building":"yes","source":"Lausanne - Orthophoto technique 2012","id":"way/53042870"},"geometry":{"type":"Polygon","coordinates":[[[6.6343526,46.5214505],[6.634368,46.521394],[6.6344403,46.5213922],[6.634497,46.5213906],[6.6345125,46.5214372],[6.6344996,46.5214557],[6.6344657,46.521456],[6.634466,46.5214815],[6.6344334,46.5214817],[6.6344336,46.5214934],[6.6345049,46.5214929],[6.6345034,46.5215538],[6.6344673,46.5215627],[6.6343898,46.5215824],[6.634357,46.5214938],[6.6343526,46.5214505]]]}},{"type":"Feature","id":"way/53042873","properties":{"timestamp":"2015-05-14T12:30:44Z","version":"2","changeset":"31138848","user":"mathieuS","uid":"40504","addr:housenumber":"18","addr:postcode":"1003","addr:street":"Rue Mercerie","building":"yes","source":"Lausanne - Orthophoto technique 2012","id":"way/53042873"},"geometry":{"type":"Polygon","coordinates":[[[6.634357,46.5214938],[6.6343898,46.5215824],[6.6342878,46.5216135],[6.6342428,46.5214993],[6.634357,46.5214938]]]}},{"type":"Feature","id":"way/53042886","properties":{"timestamp":"2015-05-14T12:15:59Z","version":"2","changeset":"31138197","user":"mathieuS","uid":"40504","addr:housenumber":"25","addr:postcode":"1003","addr:street":"Rue Centrale","building":"yes","source":"Lausanne - Orthophoto technique 2012","id":"way/53042886"},"geometry":{"type":"Polygon","coordinates":[[[6.6350244,46.5210328],[6.6352498,46.5210286],[6.635254,46.5211364],[6.6350286,46.5211405],[6.6350244,46.5210328]]]}},{"type":"Feature","id":"way/53042891","properties":{"timestamp":"2015-05-14T12:15:58Z","version":"2","changeset":"31138197","user":"mathieuS","uid":"40504","addr:housenumber":"23","addr:postcode":"1003","addr:street":"Rue Centrale","building":"yes","source":"Lausanne - Orthophoto technique 2012","id":"way/53042891"},"geometry":{"type":"Polygon","coordinates":[[[6.6348055,46.5210368],[6.6350244,46.5210328],[6.6350286,46.5211405],[6.6348097,46.5211446],[6.6348055,46.5210368]]]}},{"type":"Feature","id":"way/53042892","properties":{"timestamp":"2019-07-23T13:38:51Z","version":"3","changeset":"72559413","user":"Serird","uid":"6102714","addr:housenumber":"21","addr:postcode":"1003","addr:street":"Rue Centrale","building":"retail","source":"Lausanne - Orthophoto technique 2012","id":"way/53042892"},"geometry":{"type":"Polygon","coordinates":[[[6.6345703,46.5210456],[6.6348055,46.5210368],[6.6348097,46.5211446],[6.6345765,46.5211463],[6.6345703,46.5210456]]]}},{"type":"Feature","id":"way/53042895","properties":{"timestamp":"2015-05-14T12:30:44Z","version":"2","changeset":"31138848","user":"mathieuS","uid":"40504","addr:housenumber":"22","addr:postcode":"1003","addr:street":"Rue Mercerie","building":"yes","source":"Lausanne - Orthophoto technique 2012","id":"way/53042895"},"geometry":{"type":"Polygon","coordinates":[[[6.6346789,46.521442],[6.6347048,46.521531],[6.6346594,46.5215345],[6.6346622,46.5215589],[6.634502,46.5215802],[6.6345034,46.5215538],[6.6345049,46.5214929],[6.6344996,46.5214557],[6.6345125,46.5214372],[6.6346789,46.521442]]]}},{"type":"Feature","id":"way/53042906","properties":{"timestamp":"2015-05-14T12:30:44Z","version":"3","changeset":"31138848","user":"mathieuS","uid":"40504","addr:housenumber":"22b","addr:postcode":"1003","addr:street":"Rue Mercerie","building":"yes","source":"Lausanne - Orthophoto technique 2012","id":"way/53042906"},"geometry":{"type":"Polygon","coordinates":[[[6.6347048,46.521531],[6.6346789,46.521442],[6.6346741,46.5214255],[6.634739,46.5214165],[6.6347358,46.5214039],[6.6347675,46.5213815],[6.6348077,46.5213785],[6.6348416,46.5213937],[6.6348443,46.5214026],[6.6349102,46.5213953],[6.6349403,46.5214985],[6.6347048,46.521531]]]}},{"type":"Feature","id":"way/53042936","properties":{"timestamp":"2015-05-14T12:30:43Z","version":"2","changeset":"31138848","user":"mathieuS","uid":"40504","addr:housenumber":"12","addr:postcode":"1003","addr:street":"Rue Mercerie","building":"yes","source":"Lausanne - Orthophoto technique 2012","id":"way/53042936"},"geometry":{"type":"Polygon","coordinates":[[[6.6341468,46.5214583],[6.634171,46.5215564],[6.6342015,46.5216413],[6.6338606,46.5217665],[6.6338042,46.5217869],[6.6337222,46.5218015],[6.6336754,46.5218045],[6.6336457,46.5217218],[6.6336269,46.5216495],[6.633618,46.521605],[6.6337811,46.5215817],[6.6337782,46.5215604],[6.6337945,46.5214923],[6.6338063,46.5214414],[6.6340373,46.5214653],[6.6340474,46.5214389],[6.6341468,46.5214583]]]}},{"type":"Feature","id":"way/53042940","properties":{"timestamp":"2015-05-14T12:30:44Z","version":"2","changeset":"31138848","user":"mathieuS","uid":"40504","addr:housenumber":"4","addr:postcode":"1003","addr:street":"Rue Mercerie","building":"yes","source":"Lausanne - Orthophoto technique 2012","id":"way/53042940"},"geometry":{"type":"Polygon","coordinates":[[[6.6335533,46.521813],[6.6335174,46.5217412],[6.6335329,46.5217389],[6.6335617,46.5217345],[6.6336457,46.5217218],[6.6336754,46.5218045],[6.6336797,46.5218218],[6.6335533,46.521813]]]}},{"type":"Feature","id":"way/53042955","properties":{"timestamp":"2015-05-14T12:15:59Z","version":"2","changeset":"31138197","user":"mathieuS","uid":"40504","addr:housenumber":"31","addr:postcode":"1003","addr:street":"Rue Centrale","building":"yes","source":"Lausanne - Orthophoto technique 2012","id":"way/53042955"},"geometry":{"type":"Polygon","coordinates":[[[6.6358232,46.5211261],[6.6358305,46.5210184],[6.6358465,46.5210005],[6.635875,46.5210015],[6.6358853,46.5210147],[6.6361435,46.5210488],[6.6360043,46.5213072],[6.635765,46.5212669],[6.6357943,46.521195],[6.6357964,46.5211899],[6.6359294,46.5212147],[6.6359629,46.5211549],[6.6358288,46.5211375],[6.6358232,46.5211261]]]}},{"type":"Feature","id":"way/53157219","properties":{"timestamp":"2015-10-15T16:46:16Z","version":"2","changeset":"34658758","user":"mathieuS","uid":"40504","addr:city":"Lausanne","addr:housenumber":"15","addr:postcode":"1005","addr:street":"Place de la Cathédrale","building":"yes","source":"orthophoto lausanne 2009","id":"way/53157219"},"geometry":{"type":"Polygon","coordinates":[[[6.6359298,46.5229499],[6.635685,46.5229745],[6.63568,46.5229487],[6.6356924,46.5229475],[6.6356819,46.5228931],[6.6356775,46.5228701],[6.6357364,46.5228648],[6.6357345,46.5228551],[6.6359343,46.5228379],[6.6359487,46.5229124],[6.6359298,46.5229499]]]}},{"type":"Feature","id":"way/53157226","properties":{"timestamp":"2015-10-15T16:46:16Z","version":"2","changeset":"34658758","user":"mathieuS","uid":"40504","addr:city":"Lausanne","addr:housenumber":"6","addr:postcode":"1005","addr:street":"Rue Charles-Vuillermet","building":"yes","source":"orthophoto lausanne 2009","id":"way/53157226"},"geometry":{"type":"Polygon","coordinates":[[[6.635685,46.5229745],[6.6359298,46.5229499],[6.6358815,46.5230182],[6.6357039,46.5230431],[6.635685,46.5229745]]]}},{"type":"Feature","id":"way/53157228","properties":{"timestamp":"2015-10-15T16:46:16Z","version":"2","changeset":"34658758","user":"mathieuS","uid":"40504","addr:city":"Lausanne","addr:housenumber":"7","addr:postcode":"1005","addr:street":"Place de la Cathédrale","building":"yes","source":"Lausanne - Orthophoto technique 2012","id":"way/53157228"},"geometry":{"type":"Polygon","coordinates":[[[6.6354376,46.5230774],[6.6353384,46.5230889],[6.6353091,46.5229679],[6.6352935,46.5228992],[6.6353947,46.5228889],[6.6354032,46.5229261],[6.6354212,46.5230051],[6.6354376,46.5230774]]]}},{"type":"Feature","id":"way/53157231","properties":{"timestamp":"2015-10-15T16:46:15Z","version":"2","changeset":"34658758","user":"mathieuS","uid":"40504","addr:city":"Lausanne","addr:housenumber":"11","addr:postcode":"1005","addr:street":"Place de la Cathédrale","building":"yes","source":"orthophoto lausanne 2009","id":"way/53157231"},"geometry":{"type":"Polygon","coordinates":[[[6.6355364,46.5229107],[6.6355524,46.5229912],[6.6354212,46.5230051],[6.6354032,46.5229261],[6.6355364,46.5229107]]]}},{"type":"Feature","id":"way/53157233","properties":{"timestamp":"2015-10-15T16:46:15Z","version":"2","changeset":"34658758","user":"mathieuS","uid":"40504","addr:city":"Lausanne","addr:housenumber":"13","addr:postcode":"1005","addr:street":"Place de la Cathédrale","building":"yes","source":"orthophoto lausanne 2009","id":"way/53157233"},"geometry":{"type":"Polygon","coordinates":[[[6.635685,46.5229745],[6.6355524,46.5229912],[6.6355364,46.5229107],[6.6356819,46.5228931],[6.6356924,46.5229475],[6.63568,46.5229487],[6.635685,46.5229745]]]}},{"type":"Feature","id":"way/53157234","properties":{"timestamp":"2015-10-15T16:46:16Z","version":"2","changeset":"34658758","user":"mathieuS","uid":"40504","addr:city":"Lausanne","addr:housenumber":"4","addr:postcode":"1005","addr:street":"Rue Charles-Vuillermet","building":"yes","source":"orthophoto lausanne 2009","id":"way/53157234"},"geometry":{"type":"Polygon","coordinates":[[[6.6357039,46.5230431],[6.6355706,46.5230598],[6.6355524,46.5229912],[6.635685,46.5229745],[6.6357039,46.5230431]]]}},{"type":"Feature","id":"way/53157237","properties":{"timestamp":"2015-10-15T16:46:16Z","version":"2","changeset":"34658758","user":"mathieuS","uid":"40504","addr:city":"Lausanne","addr:housenumber":"2","addr:postcode":"1005","addr:street":"Rue Charles-Vuillermet","building":"yes","source":"orthophoto lausanne 2009","id":"way/53157237"},"geometry":{"type":"Polygon","coordinates":[[[6.6355706,46.5230598],[6.6354376,46.5230774],[6.6354212,46.5230051],[6.6355524,46.5229912],[6.6355706,46.5230598]]]}},{"type":"Feature","id":"way/53157241","properties":{"timestamp":"2015-10-15T18:45:58Z","version":"2","changeset":"34661408","user":"mathieuS","uid":"40504","addr:housenumber":"3","addr:postcode":"1005","addr:street":"Rue Cité-Derrière","building":"yes","source":"Lausanne - Orthophoto technique 2012","id":"way/53157241"},"geometry":{"type":"Polygon","coordinates":[[[6.635833,46.5231898],[6.6356597,46.5232309],[6.6355929,46.5230906],[6.6357157,46.5230737],[6.6357659,46.5231658],[6.6358159,46.5231568],[6.635833,46.5231898]]]}},{"type":"Feature","id":"way/53157242","properties":{"timestamp":"2015-10-15T18:45:58Z","version":"2","changeset":"34661408","user":"mathieuS","uid":"40504","addr:housenumber":"5","addr:postcode":"1005","addr:street":"Rue Cité-Derrière","building":"yes","source":"Lausanne - Orthophoto technique 2012","id":"way/53157242"},"geometry":{"type":"Polygon","coordinates":[[[6.6356597,46.5232309],[6.635833,46.5231898],[6.6358943,46.5231766],[6.6359347,46.5232509],[6.6358063,46.5232816],[6.6358019,46.5232693],[6.6356562,46.5233071],[6.6356424,46.5232617],[6.6356364,46.5232364],[6.6356597,46.5232309]]]}},{"type":"Feature","id":"way/53157246","properties":{"timestamp":"2015-10-15T17:24:46Z","version":"2","changeset":"34659532","user":"mathieuS","uid":"40504","addr:city":"Lausanne","addr:housenumber":"4","addr:postcode":"1005","addr:street":"Rue Cité-Derrière","building":"yes","source":"Lausanne - Orthophoto technique 2012","id":"way/53157246"},"geometry":{"type":"Polygon","coordinates":[[[6.6360145,46.522934],[6.6360245,46.5230039],[6.6360952,46.5230039],[6.6361005,46.5230645],[6.6358971,46.5230789],[6.6358907,46.5230565],[6.6359017,46.5230177],[6.6359643,46.5229335],[6.6360145,46.522934]]]}},{"type":"Feature","id":"way/53157251","properties":{"timestamp":"2015-10-15T17:24:44Z","version":"2","changeset":"34659532","user":"mathieuS","uid":"40504","addr:city":"Lausanne","addr:housenumber":"12","addr:postcode":"1005","addr:street":"Rue Cité-Derrière","building":"yes","source":"Lausanne - Orthophoto technique 2012","id":"way/53157251"},"geometry":{"type":"Polygon","coordinates":[[[6.6359838,46.5232524],[6.6362365,46.5232045],[6.6362588,46.5232766],[6.6360339,46.5233272],[6.6360304,46.523328],[6.6359838,46.5232524]]]}},{"type":"Feature","id":"way/53157257","properties":{"timestamp":"2015-10-15T17:24:46Z","version":"2","changeset":"34659532","user":"mathieuS","uid":"40504","addr:city":"Lausanne","addr:housenumber":"8","addr:postcode":"1005","addr:street":"Rue Cité-Derrière","building":"yes","source":"Lausanne - Orthophoto technique 2012","id":"way/53157257"},"geometry":{"type":"Polygon","coordinates":[[[6.6358971,46.5230789],[6.6361005,46.5230645],[6.6361383,46.5231712],[6.6359573,46.5231954],[6.6359454,46.5231983],[6.6358971,46.5230789]]]}},{"type":"Feature","id":"way/53157258","properties":{"timestamp":"2015-10-15T17:24:44Z","version":"2","changeset":"34659532","user":"mathieuS","uid":"40504","addr:city":"Lausanne","addr:housenumber":"10","addr:postcode":"1005","addr:street":"Rue Cité-Derrière","building":"yes","source":"Lausanne - Orthophoto technique 2012","id":"way/53157258"},"geometry":{"type":"Polygon","coordinates":[[[6.6359573,46.5231954],[6.6361383,46.5231712],[6.6362249,46.5231615],[6.6362365,46.5232045],[6.6359838,46.5232524],[6.6359785,46.5232529],[6.6359573,46.5231954]]]}},{"type":"Feature","id":"way/53158013","properties":{"timestamp":"2015-10-15T19:03:13Z","version":"2","changeset":"34661839","user":"mathieuS","uid":"40504","addr:housenumber":"1","addr:postcode":"1005","addr:street":"Place du Château","building":"yes","source":"Lausanne - Orthophoto technique 2012","id":"way/53158013"},"geometry":{"type":"Polygon","coordinates":[[[6.6358759,46.5239738],[6.6361571,46.5239241],[6.636165,46.5240678],[6.6357007,46.5241475],[6.6356444,46.5240674],[6.6358274,46.5240085],[6.635884,46.5239986],[6.6358759,46.5239738]]]}},{"type":"Feature","id":"way/53158018","properties":{"timestamp":"2015-10-15T19:03:14Z","version":"2","changeset":"34661839","user":"mathieuS","uid":"40504","addr:housenumber":"3","addr:postcode":"1005","addr:street":"Rue de l'Académie","building":"yes","source":"Lausanne - Orthophoto technique 2012","id":"way/53158018"},"geometry":{"type":"Polygon","coordinates":[[[6.6356918,46.5235367],[6.6357321,46.5236058],[6.6356754,46.5236215],[6.6356952,46.5236553],[6.6356216,46.5236756],[6.6355971,46.5236825],[6.6355917,46.5236734],[6.6355033,46.5236983],[6.6354466,46.5236029],[6.6356918,46.5235367]]]}},{"type":"Feature","id":"way/53158021","properties":{"timestamp":"2015-10-15T19:03:13Z","version":"2","changeset":"34661839","user":"mathieuS","uid":"40504","addr:housenumber":"12","addr:postcode":"1005","addr:street":"Rue Cité-Devant","building":"yes","source":"Lausanne - Orthophoto technique 2012","id":"way/53158021"},"geometry":{"type":"Polygon","coordinates":[[[6.6357408,46.5238773],[6.6356732,46.5238992],[6.6356765,46.5239041],[6.6355562,46.5239431],[6.6354388,46.523776],[6.6356465,46.5237175],[6.6356867,46.5237727],[6.6357682,46.5238712],[6.6357408,46.5238773]]]}},{"type":"Feature","id":"way/53158022","properties":{"timestamp":"2015-10-15T19:03:14Z","version":"2","changeset":"34661839","user":"mathieuS","uid":"40504","addr:housenumber":"14","addr:postcode":"1005","addr:street":"Rue Cité-Devant","building":"yes","source":"Lausanne - Orthophoto technique 2012","id":"way/53158022"},"geometry":{"type":"Polygon","coordinates":[[[6.6355562,46.5239431],[6.6356765,46.5239041],[6.6356732,46.5238992],[6.6357408,46.5238773],[6.6357839,46.5239403],[6.6358002,46.523935],[6.6358118,46.523952],[6.635793,46.5239581],[6.6358274,46.5240085],[6.6356444,46.5240674],[6.6355499,46.5239451],[6.6355562,46.5239431]]]}},{"type":"Feature","id":"way/53158026","properties":{"timestamp":"2017-04-25T08:35:55Z","version":"3","changeset":"48115566","user":"mathieuS","uid":"40504","building":"yes","source":"Orthophoto Ville de Lausanne 2008","id":"way/53158026"},"geometry":{"type":"Polygon","coordinates":[[[6.6352942,46.5241571],[6.63525,46.5240665],[6.6352026,46.5239561],[6.6351848,46.5239145],[6.6353996,46.5238652],[6.6354955,46.5240835],[6.6353632,46.5241232],[6.6353658,46.5241314],[6.6352942,46.5241571]]]}},{"type":"Feature","id":"way/53158036","properties":{"timestamp":"2015-10-15T19:03:14Z","version":"2","changeset":"34661839","user":"mathieuS","uid":"40504","addr:housenumber":"3","addr:postcode":"1005","addr:street":"Ruelle du Lapin-Vert","building":"yes","source":"Lausanne - Orthophoto technique 2012","id":"way/53158036"},"geometry":{"type":"Polygon","coordinates":[[[6.6358548,46.5236527],[6.6358697,46.5236476],[6.635942,46.5237497],[6.6358847,46.5237695],[6.6358114,46.523666],[6.6358548,46.5236527]]]}},{"type":"Feature","id":"way/53158037","properties":{"timestamp":"2015-10-15T19:03:14Z","version":"2","changeset":"34661839","user":"mathieuS","uid":"40504","addr:housenumber":"2","addr:postcode":"1005","addr:street":"Ruelle du Lapin-Vert","building":"yes","source":"Lausanne - Orthophoto technique 2012","id":"way/53158037"},"geometry":{"type":"Polygon","coordinates":[[[6.6358706,46.5236056],[6.6360854,46.5235454],[6.6361107,46.5235943],[6.636009,46.5236198],[6.6358995,46.5236474],[6.6358706,46.5236056]]]}},{"type":"Feature","id":"way/53158042","properties":{"timestamp":"2015-10-15T19:03:14Z","version":"2","changeset":"34661839","user":"mathieuS","uid":"40504","addr:housenumber":"7","addr:postcode":"1005","addr:street":"Rue de l'Académie","building":"yes","source":"Lausanne - Orthophoto technique 2012","id":"way/53158042"},"geometry":{"type":"Polygon","coordinates":[[[6.6360546,46.5234858],[6.6358279,46.5235402],[6.635794,46.5234882],[6.636024,46.5234267],[6.6360546,46.5234858]]]}},{"type":"Feature","id":"way/53158043","properties":{"timestamp":"2015-10-15T19:03:15Z","version":"3","changeset":"34661839","user":"mathieuS","uid":"40504","addr:housenumber":"9","addr:postcode":"1005","addr:street":"Rue Cité-Derrière","building":"yes","source":"Lausanne - Orthophoto technique 2012","id":"way/53158043"},"geometry":{"type":"Polygon","coordinates":[[[6.6358279,46.5235402],[6.6360546,46.5234858],[6.6360854,46.5235454],[6.6358706,46.5236056],[6.6358279,46.5235402]]]}},{"type":"Feature","id":"way/53158054","properties":{"timestamp":"2015-10-15T19:03:14Z","version":"2","changeset":"34661839","user":"mathieuS","uid":"40504","addr:housenumber":"17","addr:postcode":"1005","addr:street":"Rue Cité-Derrière","building":"yes","source":"Lausanne - Orthophoto technique 2012","id":"way/53158054"},"geometry":{"type":"Polygon","coordinates":[[[6.636152,46.5237903],[6.6361571,46.5239241],[6.6358759,46.5239738],[6.6358239,46.5238418],[6.6359581,46.5238215],[6.6360548,46.5238069],[6.636152,46.5237903]]]}},{"type":"Feature","id":"way/53158055","properties":{"timestamp":"2015-10-15T19:03:14Z","version":"2","changeset":"34661839","user":"mathieuS","uid":"40504","addr:housenumber":"15","addr:postcode":"1005","addr:street":"Rue Cité-Derrière","building":"yes","source":"Lausanne - Orthophoto technique 2012","id":"way/53158055"},"geometry":{"type":"Polygon","coordinates":[[[6.6361524,46.5236849],[6.636152,46.5237903],[6.6360548,46.5238069],[6.6359581,46.5238215],[6.635942,46.5237497],[6.6361524,46.5236849]]]}},{"type":"Feature","id":"way/53158057","properties":{"timestamp":"2015-10-15T19:03:14Z","version":"2","changeset":"34661839","user":"mathieuS","uid":"40504","addr:housenumber":"4","addr:postcode":"1005","addr:street":"Ruelle du Lapin-Vert","building":"yes","source":"Lausanne - Orthophoto technique 2012","id":"way/53158057"},"geometry":{"type":"Polygon","coordinates":[[[6.6359466,46.523717],[6.6358995,46.5236474],[6.636009,46.5236198],[6.6360503,46.5236915],[6.6359466,46.523717]]]}},{"type":"Feature","id":"way/53215680","properties":{"timestamp":"2015-05-23T12:33:14Z","version":"3","changeset":"31396580","user":"mathieuS","uid":"40504","addr:city":"Lausanne","addr:country":"CH","addr:housenumber":"1","addr:postcode":"1005","addr:street":"Pont Charles-Bessières","building":"yes","source":"Lausanne - Orthophoto technique 2012","id":"way/53215680"},"geometry":{"type":"Polygon","coordinates":[[[6.6361555,46.5217708],[6.635959,46.5217493],[6.6359757,46.5216962],[6.6359984,46.5216708],[6.6361059,46.521596],[6.636198,46.5216568],[6.6362697,46.5217041],[6.6361714,46.5217708],[6.6361555,46.5217708]]]}},{"type":"Feature","id":"way/53215683","properties":{"timestamp":"2015-05-23T12:11:49Z","version":"2","changeset":"31396157","user":"mathieuS","uid":"40504","addr:city":"Lausanne","addr:country":"CH","addr:housenumber":"6","addr:postcode":"1005","addr:street":"Rue Louis-Auguste-Curtat","building":"yes","source":"Lausanne - Orthophoto technique 2012","id":"way/53215683"},"geometry":{"type":"Polygon","coordinates":[[[6.6362464,46.5220275],[6.6360461,46.5220626],[6.6359768,46.5218891],[6.6360246,46.5218835],[6.6361747,46.5218752],[6.6362464,46.5220275]]]}},{"type":"Feature","id":"way/53215699","properties":{"timestamp":"2015-05-23T11:55:40Z","version":"2","changeset":"31395800","user":"mathieuS","uid":"40504","building":"yes","source":"Lausanne - Orthophoto technique 2012","id":"way/53215699"},"geometry":{"type":"Polygon","coordinates":[[[6.6358661,46.5222751],[6.6358301,46.522147],[6.6359138,46.5221309],[6.6359746,46.5221193],[6.6360093,46.5221263],[6.6360673,46.5222153],[6.6359656,46.5222455],[6.6358661,46.5222751]]]}},{"type":"Feature","id":"way/53216033","properties":{"timestamp":"2015-05-14T12:30:45Z","version":"3","changeset":"31138848","user":"mathieuS","uid":"40504","building":"yes","source":"Lausanne - Orthophoto technique 2012","id":"way/53216033"},"geometry":{"type":"Polygon","coordinates":[[[6.6348504,46.5216828],[6.6347075,46.5217213],[6.6346885,46.5215965],[6.6348315,46.521579],[6.6349528,46.5215844],[6.635007,46.5215868],[6.6350139,46.5216713],[6.6349274,46.5216733],[6.6348504,46.5216828]]]}},{"type":"Feature","id":"way/53216035","properties":{"timestamp":"2015-05-14T12:03:14Z","version":"5","changeset":"31137679","user":"mathieuS","uid":"40504","addr:housenumber":"5","addr:postcode":"1003","addr:street":"Rue Mercerie","building":"yes","source":"Lausanne - Orthophoto technique 2012","id":"way/53216035"},"geometry":{"type":"Polygon","coordinates":[[[6.6343682,46.5216851],[6.6344601,46.521803],[6.634467,46.5218118],[6.6343137,46.5218684],[6.6342148,46.5217417],[6.6343682,46.5216851]]]}},{"type":"Feature","id":"way/53216038","properties":{"timestamp":"2015-05-14T12:03:14Z","version":"4","changeset":"31137679","user":"mathieuS","uid":"40504","addr:housenumber":"2","addr:postcode":"1003","addr:street":"Escaliers du Marché","building":"yes","source":"Lausanne - Orthophoto technique 2012","id":"way/53216038"},"geometry":{"type":"Polygon","coordinates":[[[6.6339026,46.5218612],[6.6340058,46.5219874],[6.6338391,46.5220492],[6.6337294,46.5219091],[6.6338927,46.5218486],[6.6339026,46.5218612]]]}},{"type":"Feature","id":"way/53216041","properties":{"timestamp":"2015-05-14T12:03:14Z","version":"2","changeset":"31137679","user":"mathieuS","uid":"40504","addr:housenumber":"3","addr:postcode":"1003","addr:street":"Rue Mercerie","building":"yes","source":"Lausanne - Orthophoto technique 2012","id":"way/53216041"},"geometry":{"type":"Polygon","coordinates":[[[6.6342148,46.5217417],[6.6343137,46.5218684],[6.6341289,46.5219366],[6.6340301,46.5218099],[6.6342148,46.5217417]]]}},{"type":"Feature","id":"way/53216046","properties":{"timestamp":"2015-05-14T12:03:14Z","version":"3","changeset":"31137679","user":"mathieuS","uid":"40504","addr:housenumber":"4","addr:postcode":"1003","addr:street":"Escaliers du Marché","building":"yes","source":"Lausanne - Orthophoto technique 2012","id":"way/53216046"},"geometry":{"type":"Polygon","coordinates":[[[6.6338391,46.5220492],[6.6340058,46.5219874],[6.6340821,46.5220849],[6.6339155,46.5221467],[6.6338391,46.5220492]]]}},{"type":"Feature","id":"way/53216047","properties":{"timestamp":"2015-05-14T12:03:13Z","version":"3","changeset":"31137679","user":"mathieuS","uid":"40504","addr:housenumber":"1","addr:postcode":"1003","addr:street":"Rue Mercerie","building":"yes","source":"Lausanne - Orthophoto technique 2012","id":"way/53216047"},"geometry":{"type":"Polygon","coordinates":[[[6.6341289,46.5219366],[6.6340058,46.5219874],[6.6339026,46.5218612],[6.6340301,46.5218099],[6.6341289,46.5219366]]]}},{"type":"Feature","id":"way/53644390","properties":{"timestamp":"2010-03-29T14:19:58Z","version":"1","changeset":"4267691","user":"Stéphane Brunner","uid":"17835","building":"yes","source":"Orthophoto Ville de Lausanne 2008","id":"way/53644390"},"geometry":{"type":"Polygon","coordinates":[[[6.6346202,46.5230573],[6.6344518,46.5230076],[6.6344605,46.522992],[6.6344765,46.5229552],[6.6346499,46.5229764],[6.6346202,46.5230573]]]}},{"type":"Feature","id":"way/107064863","properties":{"timestamp":"2018-07-29T12:55:19Z","version":"3","changeset":"61164121","user":"ttln","uid":"3371382","building":"yes","building:levels":"7","source":"Lausanne - Orthophoto technique 2012","id":"way/107064863"},"geometry":{"type":"Polygon","coordinates":[[[6.6318787,46.5233577],[6.6319152,46.5234118],[6.6320471,46.5236075],[6.6321116,46.5237032],[6.6320768,46.5237206],[6.6319715,46.5237646],[6.631839,46.5235738],[6.631721,46.523404],[6.6318787,46.5233577]]]}},{"type":"Feature","id":"way/107064871","properties":{"timestamp":"2015-05-16T15:58:48Z","version":"2","changeset":"31204908","user":"mathieuS","uid":"40504","addr:housenumber":"4","addr:postcode":"1005","addr:street":"Rue du Valentin","building":"yes","source":"Lausanne - Orthophoto technique 2012","id":"way/107064871"},"geometry":{"type":"Polygon","coordinates":[[[6.631721,46.523404],[6.631839,46.5235738],[6.6317014,46.5236261],[6.6315703,46.5234677],[6.6316664,46.5234271],[6.631721,46.523404]]]}},{"type":"Feature","id":"way/107064873","properties":{"timestamp":"2015-05-16T15:58:48Z","version":"2","changeset":"31204908","user":"mathieuS","uid":"40504","addr:housenumber":"6","addr:postcode":"1005","addr:street":"Rue du Valentin","building":"yes","source":"Lausanne - Orthophoto technique 2012","id":"way/107064873"},"geometry":{"type":"Polygon","coordinates":[[[6.631839,46.5235738],[6.6319715,46.5237646],[6.6318617,46.5238103],[6.6317014,46.5236261],[6.631839,46.5235738]]]}},{"type":"Feature","id":"way/107064893","properties":{"timestamp":"2018-07-29T12:55:16Z","version":"3","changeset":"61164121","user":"ttln","uid":"3371382","addr:postcode":"1005","building":"yes","building:levels":"8","source":"Lausanne - Orthophoto technique 2012","id":"way/107064893"},"geometry":{"type":"Polygon","coordinates":[[[6.6318787,46.5233577],[6.631721,46.523404],[6.6317012,46.5233783],[6.6316459,46.5233979],[6.6316664,46.5234271],[6.6315703,46.5234677],[6.6315098,46.5233924],[6.6314475,46.5233151],[6.6316012,46.5232578],[6.6317728,46.5231939],[6.6318787,46.5233577]]]}},{"type":"Feature","id":"way/107072356","properties":{"timestamp":"2015-05-14T13:07:41Z","version":"2","changeset":"31140399","user":"mathieuS","uid":"40504","addr:housenumber":"11","addr:postcode":"1003","addr:street":"Place de la Palud","building":"yes","source":"Lausanne - Orthophoto technique 2012","id":"way/107072356"},"geometry":{"type":"Polygon","coordinates":[[[6.6322147,46.5223087],[6.6321287,46.5221935],[6.6321603,46.5221811],[6.6321982,46.5221684],[6.6323005,46.5222672],[6.6322269,46.5223213],[6.6322147,46.5223087]]]}},{"type":"Feature","id":"way/107072358","properties":{"timestamp":"2015-05-14T10:53:59Z","version":"2","changeset":"31135247","user":"mathieuS","uid":"40504","addr:housenumber":"16","addr:postcode":"1003","addr:street":"Rue Madeleine","building":"yes","source":"Lausanne - Orthophoto technique 2012","id":"way/107072358"},"geometry":{"type":"Polygon","coordinates":[[[6.6332811,46.5225925],[6.6332735,46.5226379],[6.6331918,46.5226395],[6.6332112,46.5225775],[6.6331676,46.5225725],[6.6331925,46.5225531],[6.6332473,46.5225512],[6.6333043,46.5225563],[6.6332997,46.5225944],[6.6332811,46.5225925]]]}},{"type":"Feature","id":"way/107072365","properties":{"timestamp":"2015-05-14T13:07:41Z","version":"2","changeset":"31140399","user":"mathieuS","uid":"40504","addr:housenumber":"10","addr:postcode":"1003","addr:street":"Place de la Palud","building":"yes","source":"Lausanne - Orthophoto technique 2012","id":"way/107072365"},"geometry":{"type":"Polygon","coordinates":[[[6.6320807,46.5220239],[6.6322036,46.5221007],[6.6323684,46.5222256],[6.6323005,46.5222672],[6.6321982,46.5221684],[6.6321603,46.5221811],[6.6321396,46.5221546],[6.6320809,46.5221231],[6.6320136,46.5220871],[6.632009,46.5220835],[6.6320807,46.5220239]]]}},{"type":"Feature","id":"way/126629914","properties":{"timestamp":"2018-03-07T12:17:59Z","version":"5","changeset":"56966834","user":"Marc_ch","uid":"4084842","addr:city":"Lausanne","addr:housenumber":"10","addr:postcode":"1003","addr:street":"Rue Pierre-Viret","building":"yes","id":"way/126629914"},"geometry":{"type":"Polygon","coordinates":[[[6.6341133,46.5230362],[6.6340921,46.5230306],[6.634231,46.5228306],[6.634336,46.5228651],[6.6341971,46.5230651],[6.6341133,46.5230362]]]}},{"type":"Feature","id":"way/128551759","properties":{"timestamp":"2015-05-14T12:56:20Z","version":"2","changeset":"31139909","user":"mathieuS","uid":"40504","addr:housenumber":"22","addr:postcode":"1003","addr:street":"Rue du Pont","building":"yes","source":"Lausanne - Orthophoto technique 2012","id":"way/128551759"},"geometry":{"type":"Polygon","coordinates":[[[6.6331416,46.5211613],[6.633038,46.5211806],[6.6329937,46.5210787],[6.633109,46.5210333],[6.6332911,46.5209492],[6.6333885,46.5209699],[6.6334073,46.5209805],[6.6334211,46.5210019],[6.6334123,46.5210186],[6.6333295,46.5211981],[6.6331416,46.5211613]]]}},{"type":"Feature","id":"way/128621150","properties":{"timestamp":"2018-06-21T21:10:02Z","version":"3","changeset":"60056749","user":"pherjung","uid":"1960557","amenity":"toilets","building":"yes","wheelchair":"yes","id":"way/128621150"},"geometry":{"type":"Polygon","coordinates":[[[6.6325477,46.5233288],[6.6325165,46.5232806],[6.63258,46.5232611],[6.6326112,46.5233094],[6.6325477,46.5233288]]]}},{"type":"Feature","id":"way/129871950","properties":{"timestamp":"2019-01-05T08:29:37Z","version":"10","changeset":"66041291","user":"lpalli","uid":"48434","building":"apartments","building:levels":"6","roof:levels":"1","roof:shape":"hipped","source":"Orthophoto Ville de Lausanne 2008","id":"way/129871950"},"geometry":{"type":"Polygon","coordinates":[[[6.6324757,46.5227327],[6.6323956,46.5226367],[6.6324317,46.522623],[6.6324199,46.5226046],[6.6325999,46.5225446],[6.6327681,46.5225737],[6.6327628,46.5225123],[6.632973,46.522503],[6.6329718,46.522551],[6.6329718,46.5226058],[6.6329401,46.5227558],[6.632937,46.5227705],[6.6329048,46.5227648],[6.6327268,46.522733],[6.6326061,46.5227105],[6.6324901,46.5227522],[6.6324825,46.5227419],[6.6324757,46.5227327]]]}},{"type":"Feature","id":"way/130073031","properties":{"timestamp":"2015-05-14T10:53:59Z","version":"4","changeset":"31135247","user":"mathieuS","uid":"40504","addr:housenumber":"18","addr:postcode":"1003","addr:street":"Rue Madeleine","building":"yes","source":"Lausanne - Orthophoto technique 2012","id":"way/130073031"},"geometry":{"type":"Polygon","coordinates":[[[6.6330393,46.5226956],[6.6330381,46.5226389],[6.6331918,46.5226395],[6.6332735,46.5226379],[6.6332605,46.522687],[6.6333179,46.5226895],[6.6333117,46.5227897],[6.6331839,46.5228105],[6.633062,46.522819],[6.6330611,46.5228129],[6.6330558,46.5227772],[6.6330542,46.5227665],[6.6330393,46.5226956]]]}},{"type":"Feature","id":"way/131222835","properties":{"timestamp":"2015-10-15T19:03:13Z","version":"2","changeset":"34661839","user":"mathieuS","uid":"40504","addr:housenumber":"1","addr:postcode":"1005","addr:street":"Rue de l'Académie","building":"yes","source":"Lausanne - Orthophoto technique 2012","id":"way/131222835"},"geometry":{"type":"Polygon","coordinates":[[[6.6353518,46.5236296],[6.6354466,46.5236029],[6.6355033,46.5236983],[6.6355917,46.5236734],[6.6355971,46.5236825],[6.6356216,46.5236756],[6.6356465,46.5237175],[6.6354388,46.523776],[6.6353518,46.5236296]]]}},{"type":"Feature","id":"way/131222846","properties":{"timestamp":"2015-10-15T16:46:16Z","version":"2","changeset":"34658758","user":"mathieuS","uid":"40504","addr:city":"Lausanne","addr:housenumber":"2","addr:postcode":"1005","addr:street":"Rue Cité-Devant","building":"yes","source":"Lausanne - Orthophoto technique 2012","id":"way/131222846"},"geometry":{"type":"Polygon","coordinates":[[[6.6353091,46.5229679],[6.6353384,46.5230889],[6.6351873,46.5231066],[6.6351728,46.523048],[6.6351568,46.5229842],[6.6353091,46.5229679]]]}},{"type":"Feature","id":"way/131222863","properties":{"timestamp":"2015-10-15T18:45:58Z","version":"2","changeset":"34661408","user":"mathieuS","uid":"40504","addr:housenumber":"10","addr:postcode":"1005","addr:street":"Rue Cité-Devant","building":"yes","source":"Lausanne - Orthophoto technique 2012","id":"way/131222863"},"geometry":{"type":"Polygon","coordinates":[[[6.6354218,46.5233232],[6.6354288,46.5233449],[6.6354668,46.5234049],[6.6355029,46.5234618],[6.6353074,46.523519],[6.6352498,46.5233573],[6.6354218,46.5233232]]]}},{"type":"Feature","id":"way/131222873","properties":{"timestamp":"2015-10-15T18:45:58Z","version":"3","changeset":"34661408","user":"mathieuS","uid":"40504","addr:housenumber":"1","addr:postcode":"1005","addr:street":"Rue Charles-Vuillermet","building":"yes","source":"Lausanne - Orthophoto technique 2012","id":"way/131222873"},"geometry":{"type":"Polygon","coordinates":[[[6.6353761,46.5231815],[6.6352043,46.5232016],[6.6351899,46.5231348],[6.635357,46.5231222],[6.6353761,46.5231815]]]}},{"type":"Feature","id":"way/165268177","properties":{"timestamp":"2012-05-28T02:16:01Z","version":"1","changeset":"11722039","user":"mdk","uid":"178186","building":"yes","id":"way/165268177"},"geometry":{"type":"Polygon","coordinates":[[[6.632553,46.5230245],[6.6324932,46.5229417],[6.6325534,46.5229211],[6.6326132,46.5230039],[6.6325842,46.5230138],[6.632553,46.5230245]]]}},{"type":"Feature","id":"way/203246851","properties":{"timestamp":"2018-11-13T11:03:08Z","version":"4","changeset":"64437969","user":"mathieuS","uid":"40504","building":"yes","source":"Orthophoto Ville de Lausanne 2008","id":"way/203246851"},"geometry":{"type":"Polygon","coordinates":[[[6.6315382,46.5213352],[6.6313814,46.5214077],[6.6313455,46.5213021],[6.631345,46.5212671],[6.631383,46.5212604],[6.6313732,46.5212278],[6.6313446,46.521234],[6.6313322,46.5211946],[6.6313607,46.5211903],[6.6313455,46.5211474],[6.6313069,46.5211533],[6.6312575,46.5210856],[6.6312487,46.5210723],[6.6313398,46.5210434],[6.6314562,46.5210088],[6.6315062,46.5211504],[6.6314544,46.5211587],[6.6314815,46.5212383],[6.6315096,46.5212338],[6.6315382,46.5213352]]]}},{"type":"Feature","id":"way/203246855","properties":{"timestamp":"2018-02-18T11:00:26Z","version":"4","changeset":"56459835","user":"kdano","uid":"1519787","addr:city":"Lausanne","addr:housenumber":"4","addr:postcode":"1003","addr:street":"Rue du Grand-Pont","building":"commercial","id":"way/203246855"},"geometry":{"type":"Polygon","coordinates":[[[6.6308628,46.5211995],[6.6308142,46.5211428],[6.6307925,46.5211191],[6.6310456,46.5208659],[6.6311232,46.5208424],[6.6312069,46.5210314],[6.6309788,46.5211259],[6.6309952,46.5211446],[6.6308628,46.5211995]]]}},{"type":"Feature","id":"way/203246856","properties":{"timestamp":"2015-05-15T21:11:16Z","version":"4","changeset":"31187881","user":"mathieuS","uid":"40504","addr:city":"Lausanne","addr:country":"CH","addr:housenumber":"19","addr:postcode":"1003","addr:street":"Rue Grand-Saint-Jean","building":"yes","source":"Orthophoto Ville de Lausanne 2008","id":"way/203246856"},"geometry":{"type":"Polygon","coordinates":[[[6.6312955,46.5212948],[6.6312696,46.5212671],[6.6313446,46.521234],[6.631345,46.5212671],[6.6313455,46.5213021],[6.6313814,46.5214077],[6.6312352,46.5214752],[6.6311294,46.5213746],[6.6312955,46.5212948]]]}},{"type":"Feature","id":"way/341982332","properties":{"timestamp":"2019-01-09T17:00:10Z","version":"4","changeset":"66168851","user":"Edward","uid":"364","building":"yes","name":"Pavillon Levade","wikidata":"Q29891073","id":"way/341982332"},"geometry":{"type":"Polygon","coordinates":[[[6.6344692,46.5226301],[6.6344788,46.5226149],[6.6344814,46.5226109],[6.6344909,46.5225959],[6.6344978,46.5225851],[6.6345047,46.5225742],[6.6346065,46.5226048],[6.6345886,46.5226329],[6.634571,46.5226607],[6.6345503,46.5226545],[6.6345116,46.5226428],[6.6344692,46.5226301]]]}},{"type":"Feature","id":"way/342018753","properties":{"timestamp":"2016-04-12T19:06:14Z","version":"3","changeset":"38508136","user":"floyd70","uid":"3068030","building":"yes","name":"Académie","id":"way/342018753"},"geometry":{"type":"Polygon","coordinates":[[[6.6343956,46.5233103],[6.6344611,46.5232738],[6.6346011,46.5232769],[6.6346072,46.5233195],[6.634791,46.5235043],[6.6348229,46.5234934],[6.6348634,46.523532],[6.634833,46.5235469],[6.6349814,46.5236878],[6.6352592,46.5236123],[6.6353209,46.5237198],[6.6352281,46.523745],[6.6352419,46.5237691],[6.6351655,46.5237899],[6.6351514,46.5237655],[6.634969,46.5238151],[6.6349463,46.523791],[6.6348297,46.5238104],[6.6344153,46.5234216],[6.6343806,46.5234333],[6.6343372,46.5233735],[6.6343542,46.5233674],[6.634389,46.5233557],[6.6343956,46.5233103]]]}},{"type":"Feature","id":"way/342018754","properties":{"timestamp":"2015-05-01T20:49:01Z","version":"2","changeset":"30704020","user":"mathieuS","uid":"40504","addr:housenumber":"1","addr:street":"Rue Cité-Devant","building":"yes","name":"Cure des Professeurs","source":"Lausanne - Orthophoto technique 2012","id":"way/342018754"},"geometry":{"type":"Polygon","coordinates":[[[6.6346202,46.5230573],[6.6346028,46.5232691],[6.6346011,46.5232769],[6.6344611,46.5232738],[6.6343956,46.5233103],[6.6344095,46.5232152],[6.6344126,46.5230252],[6.6343858,46.5230181],[6.6344083,46.5229781],[6.6344605,46.522992],[6.6344518,46.5230076],[6.6346202,46.5230573]]]}},{"type":"Feature","id":"way/342140384","properties":{"timestamp":"2015-05-23T11:55:39Z","version":"2","changeset":"31395800","user":"mathieuS","uid":"40504","addr:city":"Lausanne","addr:country":"CH","addr:housenumber":"29","addr:postcode":"1005","addr:street":"Escaliers du Marché","building":"yes","copyright":"OpenAddresses","oa:imported_by":"sbrunner","oa:lat":"46.52262878","oa:lon":"6.63442230","oa:version":"oa2osm - 0.2 - sax","source":"orthophoto lausanne 2009","id":"way/342140384"},"geometry":{"type":"Polygon","coordinates":[[[6.6344788,46.5226149],[6.6344692,46.5226301],[6.6345116,46.5226428],[6.6344786,46.5226948],[6.6343538,46.5226573],[6.634393,46.5225959],[6.6343964,46.5225901],[6.6344788,46.5226149]]]}},{"type":"Feature","id":"way/342140385","properties":{"timestamp":"2015-05-01T19:18:16Z","version":"1","changeset":"30701353","user":"mathieuS","uid":"40504","building":"roof","source":"Lausanne - Orthophoto technique 2012","id":"way/342140385"},"geometry":{"type":"Polygon","coordinates":[[[6.6343148,46.5224797],[6.6343899,46.5225229],[6.6343713,46.5225382],[6.6342963,46.522495],[6.6343047,46.5224881],[6.6343148,46.5224797]]]}},{"type":"Feature","id":"way/342265182","properties":{"timestamp":"2015-05-02T09:01:02Z","version":"1","changeset":"30715214","user":"mathieuS","uid":"40504","addr:housenumber":"20","addr:street":"Rue Madeleine","building":"yes","id":"way/342265182"},"geometry":{"type":"Polygon","coordinates":[[[6.6330257,46.5228154],[6.6330204,46.5227797],[6.6330558,46.5227772],[6.6330611,46.5228129],[6.6330342,46.5228148],[6.6330257,46.5228154]]]}},{"type":"Feature","id":"way/342265184","properties":{"timestamp":"2015-05-02T09:01:02Z","version":"1","changeset":"30715214","user":"mathieuS","uid":"40504","addr:housenumber":"22","addr:street":"Rue Madeleine","building":"yes","id":"way/342265184"},"geometry":{"type":"Polygon","coordinates":[[[6.6330634,46.522828],[6.6330685,46.5228624],[6.6330426,46.5228643],[6.6330339,46.5228649],[6.6330288,46.5228304],[6.6330365,46.5228299],[6.6330634,46.522828]]]}},{"type":"Feature","id":"way/342265186","properties":{"timestamp":"2015-05-02T09:01:02Z","version":"1","changeset":"30715214","user":"mathieuS","uid":"40504","addr:housenumber":"24","addr:street":"Rue Madeleine","building":"yes","id":"way/342265186"},"geometry":{"type":"Polygon","coordinates":[[[6.6330419,46.5229186],[6.6330365,46.5228826],[6.6330452,46.5228819],[6.6330711,46.5228801],[6.6330765,46.5229162],[6.6330509,46.522918],[6.6330419,46.5229186]]]}},{"type":"Feature","id":"way/342265187","properties":{"timestamp":"2015-05-02T09:01:02Z","version":"1","changeset":"30715214","user":"mathieuS","uid":"40504","addr:housenumber":"26","addr:street":"Rue Madeleine","building":"yes","id":"way/342265187"},"geometry":{"type":"Polygon","coordinates":[[[6.6330513,46.5229892],[6.6330436,46.5229375],[6.6330537,46.5229368],[6.6330793,46.522935],[6.633087,46.5229867],[6.633072,46.5229878],[6.6330513,46.5229892]]]}},{"type":"Feature","id":"way/342265189","properties":{"timestamp":"2019-06-20T10:49:28Z","version":"4","changeset":"71438793","user":"lpalli","uid":"48434","addr:housenumber":"28","addr:street":"Rue Madeleine","amenity":"fast_food","building":"kiosk","noname":"yes","id":"way/342265189"},"geometry":{"type":"Polygon","coordinates":[[[6.6331199,46.5230578],[6.6330804,46.5230594],[6.6330589,46.5230365],[6.6330771,46.5230124],[6.6331166,46.5230113],[6.6331376,46.5230344],[6.6331353,46.5230374],[6.6331199,46.5230578]]]}},{"type":"Feature","id":"way/342270997","properties":{"timestamp":"2015-05-02T09:46:49Z","version":"1","changeset":"30716332","user":"mathieuS","uid":"40504","building":"yes","id":"way/342270997"},"geometry":{"type":"Polygon","coordinates":[[[6.6328236,46.5227807],[6.632885,46.522771],[6.6328887,46.5227821],[6.6328929,46.5227946],[6.6328315,46.5228043],[6.6328236,46.5227807]]]}},{"type":"Feature","id":"way/342270998","properties":{"timestamp":"2015-05-06T19:15:35Z","version":"2","changeset":"30852343","user":"mathieuS","uid":"40504","building":"yes","id":"way/342270998"},"geometry":{"type":"Polygon","coordinates":[[[6.6328658,46.5229072],[6.6328567,46.5228799],[6.6329144,46.5228708],[6.6329193,46.5228854],[6.6329235,46.5228981],[6.6328658,46.5229072]]]}},{"type":"Feature","id":"way/344997757","properties":{"timestamp":"2015-05-14T10:33:42Z","version":"1","changeset":"31134581","user":"mathieuS","uid":"40504","addr:housenumber":"1","addr:postcode":"1003","addr:street":"Escaliers du Marché","building":"yes","source":"Lausanne - Orthophoto technique 2012","id":"way/344997757"},"geometry":{"type":"Polygon","coordinates":[[[6.6334671,46.5219878],[6.6334419,46.5218694],[6.6335223,46.5218808],[6.6335531,46.5218966],[6.6334671,46.5219878]]]}},{"type":"Feature","id":"way/344997758","properties":{"timestamp":"2015-05-14T10:33:42Z","version":"1","changeset":"31134581","user":"mathieuS","uid":"40504","addr:housenumber":"7","addr:postcode":"1003","addr:street":"Escaliers du Marché","building":"yes","source":"Lausanne - Orthophoto technique 2012","id":"way/344997758"},"geometry":{"type":"Polygon","coordinates":[[[6.6335508,46.5221427],[6.6335375,46.5221351],[6.6335208,46.5221476],[6.6334948,46.5221304],[6.6335341,46.5221075],[6.6336655,46.5220487],[6.633694,46.5220884],[6.6335508,46.5221427]]]}},{"type":"Feature","id":"way/345001752","properties":{"timestamp":"2015-05-14T10:53:58Z","version":"1","changeset":"31135247","user":"mathieuS","uid":"40504","addr:housenumber":"14","addr:postcode":"1003","addr:street":"Rue Madeleine","building":"yes","source":"Lausanne - Orthophoto technique 2012","id":"way/345001752"},"geometry":{"type":"Polygon","coordinates":[[[6.6330381,46.5226389],[6.6330449,46.5225937],[6.6330481,46.5225589],[6.6331676,46.5225725],[6.6332112,46.5225775],[6.6331918,46.5226395],[6.6330381,46.5226389]]]}},{"type":"Feature","id":"way/345017332","properties":{"timestamp":"2015-05-14T11:55:34Z","version":"1","changeset":"31137410","user":"mathieuS","uid":"40504","addr:housenumber":"23","addr:postcode":"1003","addr:street":"Escaliers du Marché","building":"yes","source":"Lausanne - Orthophoto technique 2012","id":"way/345017332"},"geometry":{"type":"Polygon","coordinates":[[[6.633995,46.5223466],[6.6338826,46.5224675],[6.633839,46.5224454],[6.6339413,46.522312],[6.633995,46.5223466]]]}},{"type":"Feature","id":"way/345017937","properties":{"timestamp":"2015-05-14T11:57:53Z","version":"1","changeset":"31137502","user":"mathieuS","uid":"40504","building":"yes","source":"Lausanne - Orthophoto technique 2012","id":"way/345017937"},"geometry":{"type":"Polygon","coordinates":[[[6.6335963,46.5224773],[6.6336708,46.522403],[6.6337133,46.5224264],[6.6336819,46.5224584],[6.6336484,46.5224926],[6.6335963,46.5224773]]]}},{"type":"Feature","id":"way/345018093","properties":{"timestamp":"2015-05-14T11:58:42Z","version":"1","changeset":"31137532","user":"mathieuS","uid":"40504","building":"yes","source":"Lausanne - Orthophoto technique 2012","id":"way/345018093"},"geometry":{"type":"Polygon","coordinates":[[[6.633755,46.5226166],[6.6337908,46.5225712],[6.6339214,46.5226084],[6.6338946,46.5226506],[6.633755,46.5226166]]]}},{"type":"Feature","id":"way/345021056","properties":{"timestamp":"2015-05-14T12:15:54Z","version":"1","changeset":"31138197","user":"mathieuS","uid":"40504","addr:housenumber":"27bis","addr:postcode":"1003","addr:street":"Rue Centrale","building":"yes","source":"Lausanne - Orthophoto technique 2012","id":"way/345021056"},"geometry":{"type":"Polygon","coordinates":[[[6.6352477,46.5212117],[6.6352489,46.5211616],[6.6358036,46.5211595],[6.6357943,46.521195],[6.635765,46.5212669],[6.6357506,46.5212959],[6.6355392,46.5212559],[6.635295,46.5212225],[6.6352477,46.5212117]]]}},{"type":"Feature","id":"way/345023789","properties":{"timestamp":"2015-05-14T12:30:43Z","version":"1","changeset":"31138848","user":"mathieuS","uid":"40504","addr:housenumber":"2","addr:postcode":"1003","addr:street":"Rue Mercerie","building":"yes","source":"Lausanne - Orthophoto technique 2012","id":"way/345023789"},"geometry":{"type":"Polygon","coordinates":[[[6.633399,46.5217612],[6.6335174,46.5217412],[6.6335533,46.521813],[6.6334276,46.521819],[6.6334022,46.5217873],[6.6333833,46.5217636],[6.633399,46.5217612]]]}},{"type":"Feature","id":"way/345023790","properties":{"timestamp":"2015-05-14T12:30:43Z","version":"1","changeset":"31138848","user":"mathieuS","uid":"40504","addr:housenumber":"23","addr:postcode":"1003","addr:street":"Place de la Palud","building":"yes","source":"Lausanne - Orthophoto technique 2012","id":"way/345023790"},"geometry":{"type":"Polygon","coordinates":[[[6.6333696,46.5216935],[6.6336269,46.5216495],[6.6336457,46.5217218],[6.6335617,46.5217345],[6.6335483,46.5217018],[6.6335162,46.5217087],[6.6335329,46.5217389],[6.6335174,46.5217412],[6.633399,46.5217612],[6.6333696,46.5216935]]]}},{"type":"Feature","id":"way/345026550","properties":{"timestamp":"2015-05-14T12:56:15Z","version":"1","changeset":"31139909","user":"mathieuS","uid":"40504","addr:housenumber":"10","addr:postcode":"1003","addr:street":"Rue du Pont","building":"yes","source":"Lausanne - Orthophoto technique 2012","id":"way/345026550"},"geometry":{"type":"Polygon","coordinates":[[[6.6332216,46.5214356],[6.633046,46.5213956],[6.6329633,46.5213784],[6.6329788,46.5213481],[6.633255,46.5213984],[6.6332423,46.5214402],[6.6332216,46.5214356]]]}},{"type":"Feature","id":"way/345026553","properties":{"timestamp":"2015-05-14T12:56:15Z","version":"1","changeset":"31139909","user":"mathieuS","uid":"40504","addr:housenumber":"5","addr:postcode":"1003","addr:street":"Rue du Petit-Saint-Jean","building":"yes","source":"Lausanne - Orthophoto technique 2012","id":"way/345026553"},"geometry":{"type":"Polygon","coordinates":[[[6.6329285,46.5211133],[6.6329906,46.5211882],[6.6328784,46.5213133],[6.63277,46.5212636],[6.632746,46.521248],[6.6327936,46.5212465],[6.6327955,46.5212212],[6.6327798,46.5212209],[6.6328554,46.5211613],[6.6329285,46.5211133]]]}},{"type":"Feature","id":"way/345026554","properties":{"timestamp":"2015-05-14T12:56:15Z","version":"1","changeset":"31139909","user":"mathieuS","uid":"40504","addr:housenumber":"7","addr:postcode":"1003","addr:street":"Rue du Petit-Saint-Jean","building":"yes","source":"Lausanne - Orthophoto technique 2012","id":"way/345026554"},"geometry":{"type":"Polygon","coordinates":[[[6.6329906,46.5211882],[6.6329285,46.5211133],[6.6329937,46.5210787],[6.633038,46.5211806],[6.6329906,46.5211882]]]}},{"type":"Feature","id":"way/345305232","properties":{"timestamp":"2015-05-15T15:59:25Z","version":"1","changeset":"31180645","user":"mathieuS","uid":"40504","addr:housenumber":"4","addr:postcode":"1003","addr:street":"Rue Adrien-Pichard","building":"yes","source":"Lausanne - Orthophoto technique 2012","id":"way/345305232"},"geometry":{"type":"Polygon","coordinates":[[[6.6303583,46.5220869],[6.6305266,46.5221278],[6.6305113,46.5221628],[6.6303496,46.5221257],[6.6302775,46.5220975],[6.6302981,46.5220584],[6.6303583,46.5220869]]]}},{"type":"Feature","id":"way/347599917","properties":{"timestamp":"2015-05-23T11:55:38Z","version":"1","changeset":"31395800","user":"mathieuS","uid":"40504","addr:city":"Lausanne","addr:country":"CH","addr:housenumber":"2","addr:postcode":"1005","addr:street":"Rue Pierre-Viret","building":"yes","copyright":"OpenAddresses","oa:imported_by":"sbrunner","oa:lat":"46.52210999","oa:lon":"6.63529682","oa:version":"oa2osm - 0.2 - sax","source":"orthophoto lausanne 2009","id":"way/347599917"},"geometry":{"type":"Polygon","coordinates":[[[6.6354856,46.5219307],[6.6353356,46.5219101],[6.6351761,46.5219402],[6.6351695,46.5218214],[6.6352166,46.5218213],[6.6352164,46.5217988],[6.6354561,46.5217982],[6.6354562,46.5218215],[6.6354851,46.5218214],[6.6354856,46.5219307]]]}},{"type":"Feature","id":"way/347599918","properties":{"timestamp":"2015-05-23T11:55:38Z","version":"1","changeset":"31395800","user":"mathieuS","uid":"40504","addr:city":"Lausanne","addr:country":"CH","addr:housenumber":"4","addr:postcode":"1005","addr:street":"Rue Pierre-Viret","building":"yes","source":"Lausanne - Orthophoto technique 2012","id":"way/347599918"},"geometry":{"type":"Polygon","coordinates":[[[6.6349786,46.5218598],[6.6348236,46.5218703],[6.6348023,46.5218737],[6.6347791,46.5218054],[6.6349509,46.5217779],[6.6349786,46.5218598]]]}},{"type":"Feature","id":"way/347599919","properties":{"timestamp":"2015-05-23T11:55:38Z","version":"1","changeset":"31395800","user":"mathieuS","uid":"40504","building":"yes","source":"Lausanne - Orthophoto technique 2012","id":"way/347599919"},"geometry":{"type":"Polygon","coordinates":[[[6.6351027,46.5220156],[6.6349967,46.5220045],[6.6350022,46.5219803],[6.6349653,46.5219823],[6.6349657,46.521975],[6.6349378,46.5219738],[6.6349348,46.521998],[6.6348494,46.5219891],[6.6348562,46.5219519],[6.6348364,46.5219481],[6.6348428,46.5219269],[6.6348236,46.5218703],[6.6349786,46.5218598],[6.635043,46.5218495],[6.6350559,46.521907],[6.63507,46.5219702],[6.6350846,46.5219706],[6.635092,46.5219889],[6.6351027,46.5220156]]]}},{"type":"Feature","id":"way/375412630","properties":{"timestamp":"2015-10-15T16:46:10Z","version":"1","changeset":"34658758","user":"mathieuS","uid":"40504","addr:city":"Lausanne","addr:housenumber":"5a","addr:postcode":"1005","addr:street":"Place de la Cathédrale","building":"yes","source":"Lausanne - Orthophoto technique 2012","id":"way/375412630"},"geometry":{"type":"Polygon","coordinates":[[[6.6353091,46.5229679],[6.6351568,46.5229842],[6.6351413,46.5229155],[6.6352935,46.5228992],[6.6353091,46.5229679]]]}},{"type":"Feature","id":"way/375429268","properties":{"timestamp":"2015-10-15T18:45:55Z","version":"1","changeset":"34661408","user":"mathieuS","uid":"40504","addr:housenumber":"2","addr:postcode":"1005","addr:street":"Rue de l'Académie","building":"yes","source":"Lausanne - Orthophoto technique 2012","id":"way/375429268"},"geometry":{"type":"Polygon","coordinates":[[[6.6355818,46.5233254],[6.6355859,46.5233353],[6.6356422,46.5234261],[6.6355029,46.5234618],[6.6354668,46.5234049],[6.6355591,46.5233792],[6.6355272,46.5233335],[6.6355818,46.5233254]]]}},{"type":"Feature","id":"way/375429269","properties":{"timestamp":"2015-10-15T18:45:56Z","version":"1","changeset":"34661408","user":"mathieuS","uid":"40504","addr:housenumber":"4","addr:postcode":"1005","addr:street":"Rue Cité-Devant","building":"yes","source":"Lausanne - Orthophoto technique 2012","id":"way/375429269"},"geometry":{"type":"Polygon","coordinates":[[[6.6352138,46.5232453],[6.6352043,46.5232016],[6.6353761,46.5231815],[6.6353861,46.5232123],[6.6352138,46.5232453]]]}},{"type":"Feature","id":"way/375429270","properties":{"timestamp":"2015-10-15T18:45:56Z","version":"1","changeset":"34661408","user":"mathieuS","uid":"40504","addr:housenumber":"4","addr:postcode":"1005","addr:street":"Rue de l'Académie","building":"yes","source":"Lausanne - Orthophoto technique 2012","id":"way/375429270"},"geometry":{"type":"Polygon","coordinates":[[[6.6355859,46.5233353],[6.6356562,46.5233203],[6.6356938,46.523394],[6.6357168,46.5233885],[6.6357405,46.523435],[6.6356605,46.5234596],[6.6356422,46.5234261],[6.6355859,46.5233353]]]}},{"type":"Feature","id":"way/375429271","properties":{"timestamp":"2015-10-15T18:45:56Z","version":"1","changeset":"34661408","user":"mathieuS","uid":"40504","addr:housenumber":"6","addr:postcode":"1005","addr:street":"Rue Cité-Devant","building":"yes","source":"Lausanne - Orthophoto technique 2012","id":"way/375429271"},"geometry":{"type":"Polygon","coordinates":[[[6.6352257,46.5232894],[6.6352138,46.5232453],[6.6353861,46.5232123],[6.6354007,46.5232578],[6.6352257,46.5232894]]]}},{"type":"Feature","id":"way/375429272","properties":{"timestamp":"2015-10-15T18:45:56Z","version":"1","changeset":"34661408","user":"mathieuS","uid":"40504","addr:housenumber":"8","addr:postcode":"1005","addr:street":"Rue Cité-Devant","building":"yes","source":"Lausanne - Orthophoto technique 2012","id":"way/375429272"},"geometry":{"type":"Polygon","coordinates":[[[6.6352498,46.5233573],[6.6352257,46.5232894],[6.6354007,46.5232578],[6.6354218,46.5233232],[6.6352498,46.5233573]]]}},{"type":"Feature","id":"way/375429273","properties":{"timestamp":"2015-10-15T18:45:56Z","version":"1","changeset":"34661408","user":"mathieuS","uid":"40504","building":"yes","source":"Lausanne - Orthophoto technique 2012","id":"way/375429273"},"geometry":{"type":"Polygon","coordinates":[[[6.6356364,46.5232364],[6.6356424,46.5232617],[6.6355897,46.5232759],[6.6355718,46.523301],[6.6355818,46.5233254],[6.6355272,46.5233335],[6.6354288,46.5233449],[6.6354218,46.5233232],[6.6354007,46.5232578],[6.6353861,46.5232123],[6.6353761,46.5231815],[6.635357,46.5231222],[6.6354109,46.5231181],[6.6354157,46.5231309],[6.6354505,46.5232227],[6.6354638,46.5232203],[6.6355382,46.5232069],[6.6355578,46.5232034],[6.6355267,46.5231147],[6.6355208,46.5230979],[6.6355929,46.5230906],[6.6356597,46.5232309],[6.6356364,46.5232364]]]}},{"type":"Feature","id":"way/375429274","properties":{"timestamp":"2015-10-15T18:45:56Z","version":"1","changeset":"34661408","user":"mathieuS","uid":"40504","building":"shed","source":"Lausanne - Orthophoto technique 2012","id":"way/375429274"},"geometry":{"type":"Polygon","coordinates":[[[6.6358969,46.5233134],[6.63595,46.5233015],[6.6359747,46.5233538],[6.6359216,46.5233657],[6.6358969,46.5233134]]]}},{"type":"Feature","id":"way/375442714","properties":{"timestamp":"2015-10-15T19:55:20Z","version":"1","changeset":"34662884","user":"mathieuS","uid":"40504","addr:city":"Lausanne","addr:housenumber":"15","addr:street":"Rue du Valentin","building":"yes","source":"Orthophotos de la Ville de Lausanne (2008)","id":"way/375442714"},"geometry":{"type":"Polygon","coordinates":[[[6.6317236,46.5239374],[6.6316028,46.5239586],[6.6315788,46.5239287],[6.6315652,46.5239334],[6.6315447,46.5239099],[6.6315596,46.5239034],[6.6315057,46.52384],[6.6314964,46.5238294],[6.6316036,46.523786],[6.6316859,46.5238799],[6.6317098,46.5239116],[6.6317236,46.5239374]]]}},{"type":"Feature","id":"way/375442715","properties":{"timestamp":"2015-10-15T19:55:20Z","version":"1","changeset":"34662884","user":"mathieuS","uid":"40504","addr:city":"Lausanne","addr:housenumber":"17","addr:street":"Rue du Valentin","building":"yes","source":"Orthophotos de la Ville de Lausanne (2008)","id":"way/375442715"},"geometry":{"type":"Polygon","coordinates":[[[6.6316028,46.5239586],[6.6317236,46.5239374],[6.6317307,46.5239507],[6.6317452,46.5239965],[6.6317474,46.5240326],[6.6317452,46.5240667],[6.6317371,46.5241042],[6.6317124,46.5241492],[6.6316051,46.5241108],[6.6316189,46.5240816],[6.6316244,46.5240573],[6.6316078,46.5240573],[6.6316091,46.5240344],[6.6316266,46.5240349],[6.6316245,46.5240073],[6.6316155,46.5239745],[6.6316028,46.5239586]]]}},{"type":"Feature","id":"way/375442716","properties":{"timestamp":"2015-10-15T19:55:20Z","version":"1","changeset":"34662884","user":"mathieuS","uid":"40504","addr:city":"Lausanne","addr:housenumber":"2","addr:street":"Rue Pré-du-Marché","building":"yes","source":"Lausanne - Orthophoto technique 2012","id":"way/375442716"},"geometry":{"type":"Polygon","coordinates":[[[6.6311205,46.5236232],[6.6311749,46.5235925],[6.6311482,46.5235701],[6.6311737,46.5235557],[6.6310625,46.5234625],[6.6310962,46.5234432],[6.6312156,46.5233712],[6.6312521,46.5233944],[6.6312918,46.5234197],[6.6314894,46.5236365],[6.6315374,46.5236851],[6.6314666,46.5237108],[6.6314266,46.5236755],[6.6313636,46.5236357],[6.6313428,46.5236476],[6.631302,46.5236139],[6.6311881,46.5236791],[6.6311205,46.5236232]]]}},{"type":"Feature","id":"way/375442717","properties":{"timestamp":"2015-10-15T19:55:20Z","version":"1","changeset":"34662884","user":"mathieuS","uid":"40504","addr:city":"Lausanne","addr:country":"CH","addr:housenumber":"3","addr:street":"Rue du Valentin","building":"yes","source":"Orthophotos de la Ville de Lausanne (2008)","id":"way/375442717"},"geometry":{"type":"Polygon","coordinates":[[[6.6311993,46.523713],[6.6311677,46.5236909],[6.6311881,46.5236791],[6.631302,46.5236139],[6.6313428,46.5236476],[6.6313636,46.5236357],[6.6314266,46.5236755],[6.631272,46.523774],[6.6311993,46.523713]]]}},{"type":"Feature","id":"way/375442718","properties":{"timestamp":"2015-10-15T19:55:21Z","version":"1","changeset":"34662884","user":"mathieuS","uid":"40504","addr:city":"Lausanne","addr:country":"CH","addr:housenumber":"5","addr:street":"Rue du Valentin","building":"yes","source":"Orthophotos de la Ville de Lausanne (2008)","id":"way/375442718"},"geometry":{"type":"Polygon","coordinates":[[[6.631272,46.523774],[6.6312835,46.5237837],[6.6311433,46.5238627],[6.6310435,46.5239189],[6.6309594,46.5238481],[6.6311993,46.523713],[6.631272,46.523774]]]}},{"type":"Feature","id":"way/384558936","properties":{"timestamp":"2015-12-06T13:44:45Z","version":"2","changeset":"35785865","user":"didier2020","uid":"300459","building":"yes","id":"way/384558936"},"geometry":{"type":"Polygon","coordinates":[[[6.6347751,46.5211904],[6.6350124,46.52119],[6.6350127,46.5212618],[6.6347754,46.5212622],[6.6347751,46.5211904]]]}},{"type":"Feature","id":"way/643712635","properties":{"timestamp":"2019-03-29T15:40:09Z","version":"2","changeset":"68669624","user":"billyonthemountain","uid":"3130748","building":"yes","id":"way/643712635"},"geometry":{"type":"Polygon","coordinates":[[[6.6305062,46.5236785],[6.6304408,46.5236234],[6.630506,46.5235958],[6.6305278,46.5235866],[6.6307755,46.5234816],[6.63082,46.5234627],[6.6308565,46.5234472],[6.630882,46.5234662],[6.6305062,46.5236785]]]}},{"type":"Feature","id":"way/643745220","properties":{"timestamp":"2018-11-13T11:03:06Z","version":"1","changeset":"64437969","user":"mathieuS","uid":"40504","building":"yes","source":"Orthophoto Ville de Lausanne 2008","id":"way/643745220"},"geometry":{"type":"Polygon","coordinates":[[[6.6314562,46.5210088],[6.6315282,46.520992],[6.6316302,46.520969],[6.6316767,46.5211198],[6.6317004,46.5211965],[6.6317249,46.5212761],[6.6316323,46.5213054],[6.6315382,46.5213352],[6.6315096,46.5212338],[6.6315767,46.5212188],[6.631551,46.5211432],[6.6315062,46.5211504],[6.6314562,46.5210088]]]}},{"type":"Feature","id":"way/643745221","properties":{"timestamp":"2018-11-13T11:03:06Z","version":"1","changeset":"64437969","user":"mathieuS","uid":"40504","building":"yes","source":"Orthophoto Ville de Lausanne 2008","id":"way/643745221"},"geometry":{"type":"Polygon","coordinates":[[[6.6316302,46.520969],[6.6317873,46.5209478],[6.63184,46.5209374],[6.6318865,46.5209172],[6.6319052,46.5209901],[6.6319141,46.5210558],[6.6319159,46.5210896],[6.6319159,46.5211179],[6.6318884,46.5212461],[6.6318026,46.5212618],[6.6317249,46.5212761],[6.6317004,46.5211965],[6.6317958,46.5211826],[6.6317721,46.5211059],[6.6316767,46.5211198],[6.6316302,46.520969]]]}}]}
